[{"code_postal":"03200","nom_commune":"Vichy","nom_departement":"Allier","nom_region":"Auvergne-Rh\u00f4ne-Alpes","service attente":"Piano en libre service","gare":"Vichy","trigramme":"VHY","code commune":"03310","code(s) uic":"87732008","lat":"46.126979","lon":" 3.430448"},{"code_postal":"06150","nom_commune":"Cannes","nom_departement":"Alpes-Maritimes","nom_region":"Provence-Alpes-C\u00f4te d'Azur","service attente":"Piano en libre service","gare":"Cannes","trigramme":"CAN","code commune":"06029","code(s) uic":"87757625","lat":"43.553839","lon":" 7.019682"},{"code_postal":"06400","nom_commune":"Cannes","nom_departement":"Alpes-Maritimes","nom_region":"Provence-Alpes-C\u00f4te d'Azur","service attente":"Piano en libre service","gare":"Cannes","trigramme":"CAN","code commune":"06029","code(s) uic":"87757625","lat":"43.553839","lon":" 7.019682"},{"code_postal":"06000","nom_commune":"Nice","nom_departement":"Alpes-Maritimes","nom_region":"Provence-Alpes-C\u00f4te d'Azur","service attente":"Distributeur d'Histoires Courtes","gare":"Nice","trigramme":"NIC","code commune":"06088","code(s) uic":"87756056","lat":"43.704556","lon":" 7.261904"},{"code_postal":"06000","nom_commune":"Nice","nom_departement":"Alpes-Maritimes","nom_region":"Provence-Alpes-C\u00f4te d'Azur","service attente":"Piano en libre service","gare":"Nice","trigramme":"NIC","code commune":"06088","code(s) uic":"87756056","lat":"43.704556","lon":" 7.261904"},{"code_postal":"06100","nom_commune":"Nice","nom_departement":"Alpes-Maritimes","nom_region":"Provence-Alpes-C\u00f4te d'Azur","service attente":"Distributeur d'Histoires Courtes","gare":"Nice","trigramme":"NIC","code commune":"06088","code(s) uic":"87756056","lat":"43.704556","lon":" 7.261904"},{"code_postal":"06100","nom_commune":"Nice","nom_departement":"Alpes-Maritimes","nom_region":"Provence-Alpes-C\u00f4te d'Azur","service attente":"Piano en libre service","gare":"Nice","trigramme":"NIC","code commune":"06088","code(s) uic":"87756056","lat":"43.704556","lon":" 7.261904"},{"code_postal":"06200","nom_commune":"Nice","nom_departement":"Alpes-Maritimes","nom_region":"Provence-Alpes-C\u00f4te d'Azur","service attente":"Distributeur d'Histoires Courtes","gare":"Nice","trigramme":"NIC","code commune":"06088","code(s) uic":"87756056","lat":"43.704556","lon":" 7.261904"},{"code_postal":"06200","nom_commune":"Nice","nom_departement":"Alpes-Maritimes","nom_region":"Provence-Alpes-C\u00f4te d'Azur","service attente":"Piano en libre service","gare":"Nice","trigramme":"NIC","code commune":"06088","code(s) uic":"87756056","lat":"43.704556","lon":" 7.261904"},{"code_postal":"06200","nom_commune":"Nice","nom_departement":"Alpes-Maritimes","nom_region":"Provence-Alpes-C\u00f4te d'Azur","service attente":"Distributeur d'Histoires Courtes","gare":"Nice","trigramme":"NIC","code commune":"06088","code(s) uic":"87756056","lat":"43.704556","lon":" 7.261904"},{"code_postal":"06200","nom_commune":"Nice","nom_departement":"Alpes-Maritimes","nom_region":"Provence-Alpes-C\u00f4te d'Azur","service attente":"Piano en libre service","gare":"Nice","trigramme":"NIC","code commune":"06088","code(s) uic":"87756056","lat":"43.704556","lon":" 7.261904"},{"code_postal":"06200","nom_commune":"Nice","nom_departement":"Alpes-Maritimes","nom_region":"Provence-Alpes-C\u00f4te d'Azur","service attente":"Distributeur d'Histoires Courtes","gare":"Nice","trigramme":"NIC","code commune":"06088","code(s) uic":"87756056","lat":"43.704556","lon":" 7.261904"},{"code_postal":"06200","nom_commune":"Nice","nom_departement":"Alpes-Maritimes","nom_region":"Provence-Alpes-C\u00f4te d'Azur","service attente":"Piano en libre service","gare":"Nice","trigramme":"NIC","code commune":"06088","code(s) uic":"87756056","lat":"43.704556","lon":" 7.261904"},{"code_postal":"06300","nom_commune":"Nice","nom_departement":"Alpes-Maritimes","nom_region":"Provence-Alpes-C\u00f4te d'Azur","service attente":"Distributeur d'Histoires Courtes","gare":"Nice","trigramme":"NIC","code commune":"06088","code(s) uic":"87756056","lat":"43.704556","lon":" 7.261904"},{"code_postal":"06300","nom_commune":"Nice","nom_departement":"Alpes-Maritimes","nom_region":"Provence-Alpes-C\u00f4te d'Azur","service attente":"Piano en libre service","gare":"Nice","trigramme":"NIC","code commune":"06088","code(s) uic":"87756056","lat":"43.704556","lon":" 7.261904"},{"code_postal":"06190","nom_commune":"Roquebrune-Cap-Martin","nom_departement":"Alpes-Maritimes","nom_region":"Provence-Alpes-C\u00f4te d'Azur","service attente":"Rechargement portables et tablettes","gare":"Roquebrune-Cap-Martin","trigramme":"CQR","code commune":"06104","code(s) uic":"87756460","lat":"43.7606178","lon":" 7.457343"},{"code_postal":"06190","nom_commune":"Roquebrune-Cap-Martin","nom_departement":"Alpes-Maritimes","nom_region":"Provence-Alpes-C\u00f4te d'Azur","service attente":"Rechargement portables et tablettes","gare":"Roquebrune-Cap-Martin","trigramme":"CQR","code commune":"06104","code(s) uic":"87756460","lat":"43.7606178","lon":" 7.457343"},{"code_postal":"08000","nom_commune":"Charleville-M\u00e9zi\u00e8res","nom_departement":"Ardennes","nom_region":"Grand Est","service attente":"Rechargement portables et tablettes","gare":"Charleville-M\u00e9zi\u00e8res","trigramme":"CMZ","code commune":"08105","code(s) uic":"87172007","lat":"49.767915","lon":" 4.724952"},{"code_postal":"11400","nom_commune":"Castelnaudary","nom_departement":"Aude","nom_region":"Occitanie","service attente":"Rechargement portables et tablettes","gare":"Castelnaudary","trigramme":"CTY","code commune":"11076","code(s) uic":"87615039","lat":"43.312292","lon":" 1.95039"},{"code_postal":"11100","nom_commune":"Narbonne","nom_departement":"Aude","nom_region":"Occitanie","service attente":"Rechargement portables et tablettes","gare":"Narbonne","trigramme":"NBN","code commune":"11262","code(s) uic":"87781104","lat":"43.190387","lon":" 3.00591"},{"code_postal":"11100","nom_commune":"Narbonne","nom_departement":"Aude","nom_region":"Occitanie","service attente":"Rechargement portables et tablettes","gare":"Narbonne","trigramme":"NBN","code commune":"11262","code(s) uic":"87781104","lat":"43.190387","lon":" 3.00591"},{"code_postal":"12100","nom_commune":"Millau","nom_departement":"Aveyron","nom_region":"Occitanie","service attente":"Rechargement portables et tablettes","gare":"Millau","trigramme":"MAU","code commune":"12145","code(s) uic":"87783001","lat":"44.102344","lon":" 3.07457"},{"code_postal":"12490","nom_commune":"Saint-Rome-de-Cernon","nom_departement":"Aveyron","nom_region":"Occitanie","service attente":"Rechargement portables et tablettes","gare":"Saint-Rome-de-Cernon","trigramme":"SDO","code commune":"12243","code(s) uic":"87783431","lat":"44.013981","lon":" 2.9673744"},{"code_postal":"12150","nom_commune":"S\u00e9v\u00e9rac d'Aveyron","nom_departement":"Aveyron","nom_region":"Occitanie","service attente":"Rechargement portables et tablettes","gare":"S\u00e9v\u00e9rac-le-Ch\u00e2teau","trigramme":"SVC","code commune":"12270","code(s) uic":"87783365","lat":"44.3246516","lon":" 3.0569451"},{"code_postal":"12150","nom_commune":"S\u00e9v\u00e9rac d'Aveyron","nom_departement":"Aveyron","nom_region":"Occitanie","service attente":"Rechargement portables et tablettes","gare":"S\u00e9v\u00e9rac-le-Ch\u00e2teau","trigramme":"SVC","code commune":"12270","code(s) uic":"87783365","lat":"44.3246516","lon":" 3.0569451"},{"code_postal":"12150","nom_commune":"S\u00e9v\u00e9rac d'Aveyron","nom_departement":"Aveyron","nom_region":"Occitanie","service attente":"Rechargement portables et tablettes","gare":"S\u00e9v\u00e9rac-le-Ch\u00e2teau","trigramme":"SVC","code commune":"12270","code(s) uic":"87783365","lat":"44.3246516","lon":" 3.0569451"},{"code_postal":"12150","nom_commune":"S\u00e9v\u00e9rac d'Aveyron","nom_departement":"Aveyron","nom_region":"Occitanie","service attente":"Rechargement portables et tablettes","gare":"S\u00e9v\u00e9rac-le-Ch\u00e2teau","trigramme":"SVC","code commune":"12270","code(s) uic":"87783365","lat":"44.3246516","lon":" 3.0569451"},{"code_postal":"12150","nom_commune":"S\u00e9v\u00e9rac d'Aveyron","nom_departement":"Aveyron","nom_region":"Occitanie","service attente":"Rechargement portables et tablettes","gare":"S\u00e9v\u00e9rac-le-Ch\u00e2teau","trigramme":"SVC","code commune":"12270","code(s) uic":"87783365","lat":"44.3246516","lon":" 3.0569451"},{"code_postal":"13080","nom_commune":"Aix-en-Provence","nom_departement":"Bouches-du-Rh\u00f4ne","nom_region":"Provence-Alpes-C\u00f4te d'Azur","service attente":"Piano en libre service","gare":"Aix-en-Provence TGV","trigramme":"AXV","code commune":"13001","code(s) uic":"87319012","lat":"43.455237","lon":" 5.317534"},{"code_postal":"13080","nom_commune":"Aix-en-Provence","nom_departement":"Bouches-du-Rh\u00f4ne","nom_region":"Provence-Alpes-C\u00f4te d'Azur","service attente":"Distributeur d'Histoires Courtes","gare":"Aix-en-Provence TGV","trigramme":"AXV","code commune":"13001","code(s) uic":"87319012","lat":"43.455237","lon":" 5.317534"},{"code_postal":"13080","nom_commune":"Aix-en-Provence","nom_departement":"Bouches-du-Rh\u00f4ne","nom_region":"Provence-Alpes-C\u00f4te d'Azur","service attente":"Rechargement portables et tablettes","gare":"Aix-en-Provence TGV","trigramme":"AXV","code commune":"13001","code(s) uic":"87319012","lat":"43.455237","lon":" 5.317534"},{"code_postal":"13090","nom_commune":"Aix-en-Provence","nom_departement":"Bouches-du-Rh\u00f4ne","nom_region":"Provence-Alpes-C\u00f4te d'Azur","service attente":"Piano en libre service","gare":"Aix-en-Provence TGV","trigramme":"AXV","code commune":"13001","code(s) uic":"87319012","lat":"43.455237","lon":" 5.317534"},{"code_postal":"13090","nom_commune":"Aix-en-Provence","nom_departement":"Bouches-du-Rh\u00f4ne","nom_region":"Provence-Alpes-C\u00f4te d'Azur","service attente":"Distributeur d'Histoires Courtes","gare":"Aix-en-Provence TGV","trigramme":"AXV","code commune":"13001","code(s) uic":"87319012","lat":"43.455237","lon":" 5.317534"},{"code_postal":"13090","nom_commune":"Aix-en-Provence","nom_departement":"Bouches-du-Rh\u00f4ne","nom_region":"Provence-Alpes-C\u00f4te d'Azur","service attente":"Rechargement portables et tablettes","gare":"Aix-en-Provence TGV","trigramme":"AXV","code commune":"13001","code(s) uic":"87319012","lat":"43.455237","lon":" 5.317534"},{"code_postal":"13100","nom_commune":"Aix-en-Provence","nom_departement":"Bouches-du-Rh\u00f4ne","nom_region":"Provence-Alpes-C\u00f4te d'Azur","service attente":"Piano en libre service","gare":"Aix-en-Provence TGV","trigramme":"AXV","code commune":"13001","code(s) uic":"87319012","lat":"43.455237","lon":" 5.317534"},{"code_postal":"13100","nom_commune":"Aix-en-Provence","nom_departement":"Bouches-du-Rh\u00f4ne","nom_region":"Provence-Alpes-C\u00f4te d'Azur","service attente":"Distributeur d'Histoires Courtes","gare":"Aix-en-Provence TGV","trigramme":"AXV","code commune":"13001","code(s) uic":"87319012","lat":"43.455237","lon":" 5.317534"},{"code_postal":"13100","nom_commune":"Aix-en-Provence","nom_departement":"Bouches-du-Rh\u00f4ne","nom_region":"Provence-Alpes-C\u00f4te d'Azur","service attente":"Rechargement portables et tablettes","gare":"Aix-en-Provence TGV","trigramme":"AXV","code commune":"13001","code(s) uic":"87319012","lat":"43.455237","lon":" 5.317534"},{"code_postal":"13100","nom_commune":"Aix-en-Provence","nom_departement":"Bouches-du-Rh\u00f4ne","nom_region":"Provence-Alpes-C\u00f4te d'Azur","service attente":"Piano en libre service","gare":"Aix-en-Provence TGV","trigramme":"AXV","code commune":"13001","code(s) uic":"87319012","lat":"43.455237","lon":" 5.317534"},{"code_postal":"13100","nom_commune":"Aix-en-Provence","nom_departement":"Bouches-du-Rh\u00f4ne","nom_region":"Provence-Alpes-C\u00f4te d'Azur","service attente":"Distributeur d'Histoires Courtes","gare":"Aix-en-Provence TGV","trigramme":"AXV","code commune":"13001","code(s) uic":"87319012","lat":"43.455237","lon":" 5.317534"},{"code_postal":"13100","nom_commune":"Aix-en-Provence","nom_departement":"Bouches-du-Rh\u00f4ne","nom_region":"Provence-Alpes-C\u00f4te d'Azur","service attente":"Rechargement portables et tablettes","gare":"Aix-en-Provence TGV","trigramme":"AXV","code commune":"13001","code(s) uic":"87319012","lat":"43.455237","lon":" 5.317534"},{"code_postal":"13290","nom_commune":"Aix-en-Provence","nom_departement":"Bouches-du-Rh\u00f4ne","nom_region":"Provence-Alpes-C\u00f4te d'Azur","service attente":"Piano en libre service","gare":"Aix-en-Provence TGV","trigramme":"AXV","code commune":"13001","code(s) uic":"87319012","lat":"43.455237","lon":" 5.317534"},{"code_postal":"13290","nom_commune":"Aix-en-Provence","nom_departement":"Bouches-du-Rh\u00f4ne","nom_region":"Provence-Alpes-C\u00f4te d'Azur","service attente":"Distributeur d'Histoires Courtes","gare":"Aix-en-Provence TGV","trigramme":"AXV","code commune":"13001","code(s) uic":"87319012","lat":"43.455237","lon":" 5.317534"},{"code_postal":"13290","nom_commune":"Aix-en-Provence","nom_departement":"Bouches-du-Rh\u00f4ne","nom_region":"Provence-Alpes-C\u00f4te d'Azur","service attente":"Rechargement portables et tablettes","gare":"Aix-en-Provence TGV","trigramme":"AXV","code commune":"13001","code(s) uic":"87319012","lat":"43.455237","lon":" 5.317534"},{"code_postal":"13540","nom_commune":"Aix-en-Provence","nom_departement":"Bouches-du-Rh\u00f4ne","nom_region":"Provence-Alpes-C\u00f4te d'Azur","service attente":"Piano en libre service","gare":"Aix-en-Provence TGV","trigramme":"AXV","code commune":"13001","code(s) uic":"87319012","lat":"43.455237","lon":" 5.317534"},{"code_postal":"13540","nom_commune":"Aix-en-Provence","nom_departement":"Bouches-du-Rh\u00f4ne","nom_region":"Provence-Alpes-C\u00f4te d'Azur","service attente":"Distributeur d'Histoires Courtes","gare":"Aix-en-Provence TGV","trigramme":"AXV","code commune":"13001","code(s) uic":"87319012","lat":"43.455237","lon":" 5.317534"},{"code_postal":"13540","nom_commune":"Aix-en-Provence","nom_departement":"Bouches-du-Rh\u00f4ne","nom_region":"Provence-Alpes-C\u00f4te d'Azur","service attente":"Rechargement portables et tablettes","gare":"Aix-en-Provence TGV","trigramme":"AXV","code commune":"13001","code(s) uic":"87319012","lat":"43.455237","lon":" 5.317534"},{"code_postal":"13340","nom_commune":"Rognac","nom_departement":"Bouches-du-Rh\u00f4ne","nom_region":"Provence-Alpes-C\u00f4te d'Azur","service attente":"Piano en libre service","gare":"Rognac","trigramme":"RGC","code commune":"13081","code(s) uic":"87753251","lat":"43.4866","lon":" 5.230666"},{"code_postal":"13001","nom_commune":"Marseille 01","nom_departement":"Bouches-du-Rh\u00f4ne","nom_region":"Provence-Alpes-C\u00f4te d'Azur","service attente":"Piano en libre service","gare":"Marseille Saint-Charles","trigramme":"MSC","code commune":"13201","code(s) uic":"87751008","lat":"43.302666","lon":" 5.380407"},{"code_postal":"14000","nom_commune":"Caen","nom_departement":"Calvados","nom_region":"Normandie","service attente":"Piano en libre service","gare":"Caen","trigramme":"CAE","code commune":"14118","code(s) uic":"87444000","lat":"49.176354","lon":" -0.347613"},{"code_postal":"14800","nom_commune":"Deauville","nom_departement":"Calvados","nom_region":"Normandie","service attente":"Distributeur d'Histoires Courtes","gare":"Trouville - Deauville","trigramme":"TDE","code commune":"14220","code(s) uic":"87444372","lat":"49.360005","lon":" 0.084167"},{"code_postal":"16000","nom_commune":"Angoul\u00eame","nom_departement":"Charente","nom_region":"Nouvelle-Aquitaine","service attente":"Rechargement portables et tablettes","gare":"Angoul\u00eame","trigramme":"ANG","code commune":"16015","code(s) uic":"87583005","lat":"45.653572","lon":" 0.164608"},{"code_postal":"18000","nom_commune":"Bourges","nom_departement":"Cher","nom_region":"Centre-Val de Loire","service attente":"Rechargement portables et tablettes","gare":"Bourges","trigramme":"BGS","code commune":"18033","code(s) uic":"87576207","lat":"47.094145","lon":" 2.394255"},{"code_postal":"19100","nom_commune":"Brive-la-Gaillarde","nom_departement":"Corr\u00e8ze","nom_region":"Nouvelle-Aquitaine","service attente":"Distributeur d'Histoires Courtes","gare":"Brive-la-Gaillarde","trigramme":"BLG","code commune":"19031","code(s) uic":"87594002","lat":"45.152618","lon":" 1.528655"},{"code_postal":"21000","nom_commune":"Dijon","nom_departement":"C\u00f4te-d'Or","nom_region":"Bourgogne-Franche-Comt\u00e9","service attente":"Piano en libre service","gare":"Dijon","trigramme":"DJV","code commune":"21231","code(s) uic":"87713040","lat":"47.32337","lon":" 5.027208"},{"code_postal":"22200","nom_commune":"Guingamp","nom_departement":"C\u00f4tes-d'Armor","nom_region":"Bretagne","service attente":"Rechargement portables et tablettes","gare":"Guingamp","trigramme":"GGP","code commune":"22070","code(s) uic":"87473207","lat":"48.555659","lon":" -3.143343"},{"code_postal":"24000","nom_commune":"P\u00e9rigueux","nom_departement":"Dordogne","nom_region":"Nouvelle-Aquitaine","service attente":"Distributeur d'Histoires Courtes","gare":"P\u00e9rigueux","trigramme":"PXR","code commune":"24322","code(s) uic":"87595009","lat":"45.187408","lon":" 0.707879"},{"code_postal":"24000","nom_commune":"P\u00e9rigueux","nom_departement":"Dordogne","nom_region":"Nouvelle-Aquitaine","service attente":"Work & Station","gare":"P\u00e9rigueux","trigramme":"PXR","code commune":"24322","code(s) uic":"87595009","lat":"45.187408","lon":" 0.707879"},{"code_postal":"25870","nom_commune":"Les Auxons","nom_departement":"Doubs","nom_region":"Bourgogne-Franche-Comt\u00e9","service attente":"Baby-foot","gare":"Besan\u00e7on Franche-Comt\u00e9 TGV","trigramme":"BFC","code commune":"25035","code(s) uic":"87300863","lat":"47.307361058531725","lon":" 5.953195095062256"},{"code_postal":"25870","nom_commune":"Les Auxons","nom_departement":"Doubs","nom_region":"Bourgogne-Franche-Comt\u00e9","service attente":"Piano en libre service","gare":"Besan\u00e7on Franche-Comt\u00e9 TGV","trigramme":"BFC","code commune":"25035","code(s) uic":"87300863","lat":"47.307361058531725","lon":" 5.953195095062256"},{"code_postal":"25870","nom_commune":"Les Auxons","nom_departement":"Doubs","nom_region":"Bourgogne-Franche-Comt\u00e9","service attente":"Baby-foot","gare":"Besan\u00e7on Franche-Comt\u00e9 TGV","trigramme":"BFC","code commune":"25035","code(s) uic":"87300863","lat":"47.307361058531725","lon":" 5.953195095062256"},{"code_postal":"25870","nom_commune":"Les Auxons","nom_departement":"Doubs","nom_region":"Bourgogne-Franche-Comt\u00e9","service attente":"Piano en libre service","gare":"Besan\u00e7on Franche-Comt\u00e9 TGV","trigramme":"BFC","code commune":"25035","code(s) uic":"87300863","lat":"47.307361058531725","lon":" 5.953195095062256"},{"code_postal":"26300","nom_commune":"Alixan","nom_departement":"Dr\u00f4me","nom_region":"Auvergne-Rh\u00f4ne-Alpes","service attente":"Piano en libre service","gare":"Valence TGV Rh\u00f4ne-Alpes Sud","trigramme":"VAL","code commune":"26004","code(s) uic":"87763029","lat":"44.991545","lon":" 4.978703"},{"code_postal":"26200","nom_commune":"Mont\u00e9limar","nom_departement":"Dr\u00f4me","nom_region":"Auvergne-Rh\u00f4ne-Alpes","service attente":"Piano en libre service","gare":"Mont\u00e9limar","trigramme":"MTR","code commune":"26198","code(s) uic":"87764001","lat":"44.559079","lon":" 4.744792"},{"code_postal":"27000","nom_commune":"\u00c9vreux","nom_departement":"Eure","nom_region":"Normandie","service attente":"Baby-foot","gare":"\u00c9vreux Normandie","trigramme":"EVX","code commune":"27229","code(s) uic":"87387001","lat":"49.018748","lon":" 1.149629"},{"code_postal":"27000","nom_commune":"\u00c9vreux","nom_departement":"Eure","nom_region":"Normandie","service attente":"Baby-foot","gare":"\u00c9vreux Normandie","trigramme":"EVX","code commune":"27229","code(s) uic":"87387001","lat":"49.018748","lon":" 1.149629"},{"code_postal":"29200","nom_commune":"Brest","nom_departement":"Finist\u00e8re","nom_region":"Bretagne","service attente":"Distributeur d'Histoires Courtes","gare":"Brest","trigramme":"BRT","code commune":"29019","code(s) uic":"87474007","lat":"48.38811","lon":" -4.478903"},{"code_postal":"29200","nom_commune":"Brest","nom_departement":"Finist\u00e8re","nom_region":"Bretagne","service attente":"Piano en libre service","gare":"Brest","trigramme":"BRT","code commune":"29019","code(s) uic":"87474007","lat":"48.38811","lon":" -4.478903"},{"code_postal":"29000","nom_commune":"Quimper","nom_departement":"Finist\u00e8re","nom_region":"Bretagne","service attente":"Distributeur d'Histoires Courtes","gare":"Quimper","trigramme":"QPR","code commune":"29232","code(s) uic":"87474098","lat":"47.994455","lon":" -4.092103"},{"code_postal":"30129","nom_commune":"Manduel","nom_departement":"Gard","nom_region":"Occitanie","service attente":"Piano en libre service","gare":"N\u00eemes Pont-du-Gard","trigramme":"NIM","code commune":"30155","code(s) uic":"87703975","lat":"43.81681","lon":" 4.50768"},{"code_postal":"30129","nom_commune":"Manduel","nom_departement":"Gard","nom_region":"Occitanie","service attente":"Rechargement portables et tablettes","gare":"N\u00eemes Pont-du-Gard","trigramme":"NIM","code commune":"30155","code(s) uic":"87703975","lat":"43.81681","lon":" 4.50768"},{"code_postal":"30129","nom_commune":"Manduel","nom_departement":"Gard","nom_region":"Occitanie","service attente":"Distributeur d'Histoires Courtes","gare":"N\u00eemes Pont-du-Gard","trigramme":"NIM","code commune":"30155","code(s) uic":"87703975","lat":"43.81681","lon":" 4.50768"},{"code_postal":"30000","nom_commune":"N\u00eemes","nom_departement":"Gard","nom_region":"Occitanie","service attente":"Piano en libre service","gare":"N\u00eemes","trigramme":"NMS","code commune":"30189","code(s) uic":"87775007","lat":"43.832291","lon":" 4.365845"},{"code_postal":"30000","nom_commune":"N\u00eemes","nom_departement":"Gard","nom_region":"Occitanie","service attente":"Rechargement portables et tablettes","gare":"N\u00eemes","trigramme":"NMS","code commune":"30189","code(s) uic":"87775007","lat":"43.832291","lon":" 4.365845"},{"code_postal":"30000","nom_commune":"N\u00eemes","nom_departement":"Gard","nom_region":"Occitanie","service attente":"Work & Station","gare":"N\u00eemes","trigramme":"NMS","code commune":"30189","code(s) uic":"87775007","lat":"43.832291","lon":" 4.365845"},{"code_postal":"30000","nom_commune":"N\u00eemes","nom_departement":"Gard","nom_region":"Occitanie","service attente":"Distributeur d'Histoires Courtes","gare":"N\u00eemes","trigramme":"NMS","code commune":"30189","code(s) uic":"87775007","lat":"43.832291","lon":" 4.365845"},{"code_postal":"30900","nom_commune":"N\u00eemes","nom_departement":"Gard","nom_region":"Occitanie","service attente":"Piano en libre service","gare":"N\u00eemes","trigramme":"NMS","code commune":"30189","code(s) uic":"87775007","lat":"43.832291","lon":" 4.365845"},{"code_postal":"30900","nom_commune":"N\u00eemes","nom_departement":"Gard","nom_region":"Occitanie","service attente":"Rechargement portables et tablettes","gare":"N\u00eemes","trigramme":"NMS","code commune":"30189","code(s) uic":"87775007","lat":"43.832291","lon":" 4.365845"},{"code_postal":"30900","nom_commune":"N\u00eemes","nom_departement":"Gard","nom_region":"Occitanie","service attente":"Work & Station","gare":"N\u00eemes","trigramme":"NMS","code commune":"30189","code(s) uic":"87775007","lat":"43.832291","lon":" 4.365845"},{"code_postal":"30900","nom_commune":"N\u00eemes","nom_departement":"Gard","nom_region":"Occitanie","service attente":"Distributeur d'Histoires Courtes","gare":"N\u00eemes","trigramme":"NMS","code commune":"30189","code(s) uic":"87775007","lat":"43.832291","lon":" 4.365845"},{"code_postal":"30900","nom_commune":"N\u00eemes","nom_departement":"Gard","nom_region":"Occitanie","service attente":"Piano en libre service","gare":"N\u00eemes","trigramme":"NMS","code commune":"30189","code(s) uic":"87775007","lat":"43.832291","lon":" 4.365845"},{"code_postal":"30900","nom_commune":"N\u00eemes","nom_departement":"Gard","nom_region":"Occitanie","service attente":"Rechargement portables et tablettes","gare":"N\u00eemes","trigramme":"NMS","code commune":"30189","code(s) uic":"87775007","lat":"43.832291","lon":" 4.365845"},{"code_postal":"30900","nom_commune":"N\u00eemes","nom_departement":"Gard","nom_region":"Occitanie","service attente":"Work & Station","gare":"N\u00eemes","trigramme":"NMS","code commune":"30189","code(s) uic":"87775007","lat":"43.832291","lon":" 4.365845"},{"code_postal":"30900","nom_commune":"N\u00eemes","nom_departement":"Gard","nom_region":"Occitanie","service attente":"Distributeur d'Histoires Courtes","gare":"N\u00eemes","trigramme":"NMS","code commune":"30189","code(s) uic":"87775007","lat":"43.832291","lon":" 4.365845"},{"code_postal":"31000","nom_commune":"Toulouse","nom_departement":"Haute-Garonne","nom_region":"Occitanie","service attente":"Piano en libre service","gare":"Toulouse Matabiau","trigramme":"TSE","code commune":"31555","code(s) uic":"87611004","lat":"43.611206","lon":" 1.453616"},{"code_postal":"31000","nom_commune":"Toulouse","nom_departement":"Haute-Garonne","nom_region":"Occitanie","service attente":"Distributeur d'Histoires Courtes","gare":"Toulouse Matabiau","trigramme":"TSE","code commune":"31555","code(s) uic":"87611004","lat":"43.611206","lon":" 1.453616"},{"code_postal":"31100","nom_commune":"Toulouse","nom_departement":"Haute-Garonne","nom_region":"Occitanie","service attente":"Piano en libre service","gare":"Toulouse Matabiau","trigramme":"TSE","code commune":"31555","code(s) uic":"87611004","lat":"43.611206","lon":" 1.453616"},{"code_postal":"31100","nom_commune":"Toulouse","nom_departement":"Haute-Garonne","nom_region":"Occitanie","service attente":"Distributeur d'Histoires Courtes","gare":"Toulouse Matabiau","trigramme":"TSE","code commune":"31555","code(s) uic":"87611004","lat":"43.611206","lon":" 1.453616"},{"code_postal":"31200","nom_commune":"Toulouse","nom_departement":"Haute-Garonne","nom_region":"Occitanie","service attente":"Piano en libre service","gare":"Toulouse Matabiau","trigramme":"TSE","code commune":"31555","code(s) uic":"87611004","lat":"43.611206","lon":" 1.453616"},{"code_postal":"31200","nom_commune":"Toulouse","nom_departement":"Haute-Garonne","nom_region":"Occitanie","service attente":"Distributeur d'Histoires Courtes","gare":"Toulouse Matabiau","trigramme":"TSE","code commune":"31555","code(s) uic":"87611004","lat":"43.611206","lon":" 1.453616"},{"code_postal":"31300","nom_commune":"Toulouse","nom_departement":"Haute-Garonne","nom_region":"Occitanie","service attente":"Piano en libre service","gare":"Toulouse Matabiau","trigramme":"TSE","code commune":"31555","code(s) uic":"87611004","lat":"43.611206","lon":" 1.453616"},{"code_postal":"31300","nom_commune":"Toulouse","nom_departement":"Haute-Garonne","nom_region":"Occitanie","service attente":"Distributeur d'Histoires Courtes","gare":"Toulouse Matabiau","trigramme":"TSE","code commune":"31555","code(s) uic":"87611004","lat":"43.611206","lon":" 1.453616"},{"code_postal":"31400","nom_commune":"Toulouse","nom_departement":"Haute-Garonne","nom_region":"Occitanie","service attente":"Piano en libre service","gare":"Toulouse Matabiau","trigramme":"TSE","code commune":"31555","code(s) uic":"87611004","lat":"43.611206","lon":" 1.453616"},{"code_postal":"31400","nom_commune":"Toulouse","nom_departement":"Haute-Garonne","nom_region":"Occitanie","service attente":"Distributeur d'Histoires Courtes","gare":"Toulouse Matabiau","trigramme":"TSE","code commune":"31555","code(s) uic":"87611004","lat":"43.611206","lon":" 1.453616"},{"code_postal":"31500","nom_commune":"Toulouse","nom_departement":"Haute-Garonne","nom_region":"Occitanie","service attente":"Piano en libre service","gare":"Toulouse Matabiau","trigramme":"TSE","code commune":"31555","code(s) uic":"87611004","lat":"43.611206","lon":" 1.453616"},{"code_postal":"31500","nom_commune":"Toulouse","nom_departement":"Haute-Garonne","nom_region":"Occitanie","service attente":"Distributeur d'Histoires Courtes","gare":"Toulouse Matabiau","trigramme":"TSE","code commune":"31555","code(s) uic":"87611004","lat":"43.611206","lon":" 1.453616"},{"code_postal":"33000","nom_commune":"Bordeaux","nom_departement":"Gironde","nom_region":"Nouvelle-Aquitaine","service attente":"Piano en libre service","gare":"Bordeaux Saint-Jean","trigramme":"BXJ","code commune":"33063","code(s) uic":"87581009","lat":"44.825873","lon":" -0.556697"},{"code_postal":"33000","nom_commune":"Bordeaux","nom_departement":"Gironde","nom_region":"Nouvelle-Aquitaine","service attente":"Rechargement portables et tablettes","gare":"Bordeaux Saint-Jean","trigramme":"BXJ","code commune":"33063","code(s) uic":"87581009","lat":"44.825873","lon":" -0.556697"},{"code_postal":"33100","nom_commune":"Bordeaux","nom_departement":"Gironde","nom_region":"Nouvelle-Aquitaine","service attente":"Piano en libre service","gare":"Bordeaux Saint-Jean","trigramme":"BXJ","code commune":"33063","code(s) uic":"87581009","lat":"44.825873","lon":" -0.556697"},{"code_postal":"33100","nom_commune":"Bordeaux","nom_departement":"Gironde","nom_region":"Nouvelle-Aquitaine","service attente":"Rechargement portables et tablettes","gare":"Bordeaux Saint-Jean","trigramme":"BXJ","code commune":"33063","code(s) uic":"87581009","lat":"44.825873","lon":" -0.556697"},{"code_postal":"33200","nom_commune":"Bordeaux","nom_departement":"Gironde","nom_region":"Nouvelle-Aquitaine","service attente":"Piano en libre service","gare":"Bordeaux Saint-Jean","trigramme":"BXJ","code commune":"33063","code(s) uic":"87581009","lat":"44.825873","lon":" -0.556697"},{"code_postal":"33200","nom_commune":"Bordeaux","nom_departement":"Gironde","nom_region":"Nouvelle-Aquitaine","service attente":"Rechargement portables et tablettes","gare":"Bordeaux Saint-Jean","trigramme":"BXJ","code commune":"33063","code(s) uic":"87581009","lat":"44.825873","lon":" -0.556697"},{"code_postal":"33300","nom_commune":"Bordeaux","nom_departement":"Gironde","nom_region":"Nouvelle-Aquitaine","service attente":"Piano en libre service","gare":"Bordeaux Saint-Jean","trigramme":"BXJ","code commune":"33063","code(s) uic":"87581009","lat":"44.825873","lon":" -0.556697"},{"code_postal":"33300","nom_commune":"Bordeaux","nom_departement":"Gironde","nom_region":"Nouvelle-Aquitaine","service attente":"Rechargement portables et tablettes","gare":"Bordeaux Saint-Jean","trigramme":"BXJ","code commune":"33063","code(s) uic":"87581009","lat":"44.825873","lon":" -0.556697"},{"code_postal":"33800","nom_commune":"Bordeaux","nom_departement":"Gironde","nom_region":"Nouvelle-Aquitaine","service attente":"Piano en libre service","gare":"Bordeaux Saint-Jean","trigramme":"BXJ","code commune":"33063","code(s) uic":"87581009","lat":"44.825873","lon":" -0.556697"},{"code_postal":"33800","nom_commune":"Bordeaux","nom_departement":"Gironde","nom_region":"Nouvelle-Aquitaine","service attente":"Rechargement portables et tablettes","gare":"Bordeaux Saint-Jean","trigramme":"BXJ","code commune":"33063","code(s) uic":"87581009","lat":"44.825873","lon":" -0.556697"},{"code_postal":"33500","nom_commune":"Libourne","nom_departement":"Gironde","nom_region":"Nouvelle-Aquitaine","service attente":"Rechargement portables et tablettes","gare":"Libourne","trigramme":"LIB","code commune":"33243","code(s) uic":"87584052","lat":"44.915888","lon":" -0.236344"},{"code_postal":"34500","nom_commune":"B\u00e9ziers","nom_departement":"H\u00e9rault","nom_region":"Occitanie","service attente":"Work & Station","gare":"B\u00e9ziers","trigramme":"BZS","code commune":"34032","code(s) uic":"87781005","lat":"43.33633","lon":" 3.218873"},{"code_postal":"34500","nom_commune":"B\u00e9ziers","nom_departement":"H\u00e9rault","nom_region":"Occitanie","service attente":"Rechargement portables et tablettes","gare":"B\u00e9ziers","trigramme":"BZS","code commune":"34032","code(s) uic":"87781005","lat":"43.33633","lon":" 3.218873"},{"code_postal":"34000","nom_commune":"Montpellier","nom_departement":"H\u00e9rault","nom_region":"Occitanie","service attente":"Rechargement portables et tablettes","gare":"Montpellier Sud de France","trigramme":"MSF","code commune":"34172","code(s) uic":"87688887","lat":"43.594787","lon":" 3.924623"},{"code_postal":"34000","nom_commune":"Montpellier","nom_departement":"H\u00e9rault","nom_region":"Occitanie","service attente":"Piano en libre service","gare":"Montpellier Sud de France","trigramme":"MSF","code commune":"34172","code(s) uic":"87688887","lat":"43.594787","lon":" 3.924623"},{"code_postal":"34000","nom_commune":"Montpellier","nom_departement":"H\u00e9rault","nom_region":"Occitanie","service attente":"Work & Station","gare":"Montpellier Sud de France","trigramme":"MSF","code commune":"34172","code(s) uic":"87688887","lat":"43.594787","lon":" 3.924623"},{"code_postal":"34000","nom_commune":"Montpellier","nom_departement":"H\u00e9rault","nom_region":"Occitanie","service attente":"Distributeur d'Histoires Courtes","gare":"Montpellier Sud de France","trigramme":"MSF","code commune":"34172","code(s) uic":"87688887","lat":"43.594787","lon":" 3.924623"},{"code_postal":"34000","nom_commune":"Montpellier","nom_departement":"H\u00e9rault","nom_region":"Occitanie","service attente":"Piano en libre service","gare":"Montpellier Saint-Roch","trigramme":"MPL","code commune":"34172","code(s) uic":"87773002","lat":"43.604738","lon":" 3.880674"},{"code_postal":"34000","nom_commune":"Montpellier","nom_departement":"H\u00e9rault","nom_region":"Occitanie","service attente":"Work & Station","gare":"Montpellier Saint-Roch","trigramme":"MPL","code commune":"34172","code(s) uic":"87773002","lat":"43.604738","lon":" 3.880674"},{"code_postal":"34070","nom_commune":"Montpellier","nom_departement":"H\u00e9rault","nom_region":"Occitanie","service attente":"Rechargement portables et tablettes","gare":"Montpellier Sud de France","trigramme":"MSF","code commune":"34172","code(s) uic":"87688887","lat":"43.594787","lon":" 3.924623"},{"code_postal":"34070","nom_commune":"Montpellier","nom_departement":"H\u00e9rault","nom_region":"Occitanie","service attente":"Piano en libre service","gare":"Montpellier Sud de France","trigramme":"MSF","code commune":"34172","code(s) uic":"87688887","lat":"43.594787","lon":" 3.924623"},{"code_postal":"34070","nom_commune":"Montpellier","nom_departement":"H\u00e9rault","nom_region":"Occitanie","service attente":"Work & Station","gare":"Montpellier Sud de France","trigramme":"MSF","code commune":"34172","code(s) uic":"87688887","lat":"43.594787","lon":" 3.924623"},{"code_postal":"34070","nom_commune":"Montpellier","nom_departement":"H\u00e9rault","nom_region":"Occitanie","service attente":"Distributeur d'Histoires Courtes","gare":"Montpellier Sud de France","trigramme":"MSF","code commune":"34172","code(s) uic":"87688887","lat":"43.594787","lon":" 3.924623"},{"code_postal":"34070","nom_commune":"Montpellier","nom_departement":"H\u00e9rault","nom_region":"Occitanie","service attente":"Piano en libre service","gare":"Montpellier Saint-Roch","trigramme":"MPL","code commune":"34172","code(s) uic":"87773002","lat":"43.604738","lon":" 3.880674"},{"code_postal":"34070","nom_commune":"Montpellier","nom_departement":"H\u00e9rault","nom_region":"Occitanie","service attente":"Work & Station","gare":"Montpellier Saint-Roch","trigramme":"MPL","code commune":"34172","code(s) uic":"87773002","lat":"43.604738","lon":" 3.880674"},{"code_postal":"34080","nom_commune":"Montpellier","nom_departement":"H\u00e9rault","nom_region":"Occitanie","service attente":"Rechargement portables et tablettes","gare":"Montpellier Sud de France","trigramme":"MSF","code commune":"34172","code(s) uic":"87688887","lat":"43.594787","lon":" 3.924623"},{"code_postal":"34080","nom_commune":"Montpellier","nom_departement":"H\u00e9rault","nom_region":"Occitanie","service attente":"Piano en libre service","gare":"Montpellier Sud de France","trigramme":"MSF","code commune":"34172","code(s) uic":"87688887","lat":"43.594787","lon":" 3.924623"},{"code_postal":"34080","nom_commune":"Montpellier","nom_departement":"H\u00e9rault","nom_region":"Occitanie","service attente":"Work & Station","gare":"Montpellier Sud de France","trigramme":"MSF","code commune":"34172","code(s) uic":"87688887","lat":"43.594787","lon":" 3.924623"},{"code_postal":"34080","nom_commune":"Montpellier","nom_departement":"H\u00e9rault","nom_region":"Occitanie","service attente":"Distributeur d'Histoires Courtes","gare":"Montpellier Sud de France","trigramme":"MSF","code commune":"34172","code(s) uic":"87688887","lat":"43.594787","lon":" 3.924623"},{"code_postal":"34080","nom_commune":"Montpellier","nom_departement":"H\u00e9rault","nom_region":"Occitanie","service attente":"Piano en libre service","gare":"Montpellier Saint-Roch","trigramme":"MPL","code commune":"34172","code(s) uic":"87773002","lat":"43.604738","lon":" 3.880674"},{"code_postal":"34080","nom_commune":"Montpellier","nom_departement":"H\u00e9rault","nom_region":"Occitanie","service attente":"Work & Station","gare":"Montpellier Saint-Roch","trigramme":"MPL","code commune":"34172","code(s) uic":"87773002","lat":"43.604738","lon":" 3.880674"},{"code_postal":"34090","nom_commune":"Montpellier","nom_departement":"H\u00e9rault","nom_region":"Occitanie","service attente":"Rechargement portables et tablettes","gare":"Montpellier Sud de France","trigramme":"MSF","code commune":"34172","code(s) uic":"87688887","lat":"43.594787","lon":" 3.924623"},{"code_postal":"34090","nom_commune":"Montpellier","nom_departement":"H\u00e9rault","nom_region":"Occitanie","service attente":"Piano en libre service","gare":"Montpellier Sud de France","trigramme":"MSF","code commune":"34172","code(s) uic":"87688887","lat":"43.594787","lon":" 3.924623"},{"code_postal":"34090","nom_commune":"Montpellier","nom_departement":"H\u00e9rault","nom_region":"Occitanie","service attente":"Work & Station","gare":"Montpellier Sud de France","trigramme":"MSF","code commune":"34172","code(s) uic":"87688887","lat":"43.594787","lon":" 3.924623"},{"code_postal":"34090","nom_commune":"Montpellier","nom_departement":"H\u00e9rault","nom_region":"Occitanie","service attente":"Distributeur d'Histoires Courtes","gare":"Montpellier Sud de France","trigramme":"MSF","code commune":"34172","code(s) uic":"87688887","lat":"43.594787","lon":" 3.924623"},{"code_postal":"34090","nom_commune":"Montpellier","nom_departement":"H\u00e9rault","nom_region":"Occitanie","service attente":"Piano en libre service","gare":"Montpellier Saint-Roch","trigramme":"MPL","code commune":"34172","code(s) uic":"87773002","lat":"43.604738","lon":" 3.880674"},{"code_postal":"34090","nom_commune":"Montpellier","nom_departement":"H\u00e9rault","nom_region":"Occitanie","service attente":"Work & Station","gare":"Montpellier Saint-Roch","trigramme":"MPL","code commune":"34172","code(s) uic":"87773002","lat":"43.604738","lon":" 3.880674"},{"code_postal":"34200","nom_commune":"S\u00e8te","nom_departement":"H\u00e9rault","nom_region":"Occitanie","service attente":"Work & Station","gare":"S\u00e8te","trigramme":"STE","code commune":"34301","code(s) uic":"87773200","lat":"43.412485","lon":" 3.69656"},{"code_postal":"34200","nom_commune":"S\u00e8te","nom_departement":"H\u00e9rault","nom_region":"Occitanie","service attente":"Rechargement portables et tablettes","gare":"S\u00e8te","trigramme":"STE","code commune":"34301","code(s) uic":"87773200","lat":"43.412485","lon":" 3.69656"},{"code_postal":"35000","nom_commune":"Rennes","nom_departement":"Ille-et-Vilaine","nom_region":"Bretagne","service attente":"Piano en libre service","gare":"Rennes","trigramme":"RES","code commune":"35238","code(s) uic":"87471003","lat":"48.103517","lon":" -1.672744"},{"code_postal":"35000","nom_commune":"Rennes","nom_departement":"Ille-et-Vilaine","nom_region":"Bretagne","service attente":"Distributeur d'Histoires Courtes","gare":"Rennes","trigramme":"RES","code commune":"35238","code(s) uic":"87471003","lat":"48.103517","lon":" -1.672744"},{"code_postal":"35200","nom_commune":"Rennes","nom_departement":"Ille-et-Vilaine","nom_region":"Bretagne","service attente":"Piano en libre service","gare":"Rennes","trigramme":"RES","code commune":"35238","code(s) uic":"87471003","lat":"48.103517","lon":" -1.672744"},{"code_postal":"35200","nom_commune":"Rennes","nom_departement":"Ille-et-Vilaine","nom_region":"Bretagne","service attente":"Distributeur d'Histoires Courtes","gare":"Rennes","trigramme":"RES","code commune":"35238","code(s) uic":"87471003","lat":"48.103517","lon":" -1.672744"},{"code_postal":"35700","nom_commune":"Rennes","nom_departement":"Ille-et-Vilaine","nom_region":"Bretagne","service attente":"Piano en libre service","gare":"Rennes","trigramme":"RES","code commune":"35238","code(s) uic":"87471003","lat":"48.103517","lon":" -1.672744"},{"code_postal":"35700","nom_commune":"Rennes","nom_departement":"Ille-et-Vilaine","nom_region":"Bretagne","service attente":"Distributeur d'Histoires Courtes","gare":"Rennes","trigramme":"RES","code commune":"35238","code(s) uic":"87471003","lat":"48.103517","lon":" -1.672744"},{"code_postal":"35400","nom_commune":"Saint-Malo","nom_departement":"Ille-et-Vilaine","nom_region":"Bretagne","service attente":"Rechargement portables et tablettes","gare":"Saint-Malo","trigramme":"SMP","code commune":"35288","code(s) uic":"87478107","lat":"48.646859","lon":" -2.004158"},{"code_postal":"35400","nom_commune":"Saint-Malo","nom_departement":"Ille-et-Vilaine","nom_region":"Bretagne","service attente":"Rechargement portables et tablettes","gare":"Saint-Malo","trigramme":"SMP","code commune":"35288","code(s) uic":"87478107","lat":"48.646859","lon":" -2.004158"},{"code_postal":"35400","nom_commune":"Saint-Malo","nom_departement":"Ille-et-Vilaine","nom_region":"Bretagne","service attente":"Rechargement portables et tablettes","gare":"Saint-Malo","trigramme":"SMP","code commune":"35288","code(s) uic":"87478107","lat":"48.646859","lon":" -2.004158"},{"code_postal":"35400","nom_commune":"Saint-Malo","nom_departement":"Ille-et-Vilaine","nom_region":"Bretagne","service attente":"Rechargement portables et tablettes","gare":"Saint-Malo","trigramme":"SMP","code commune":"35288","code(s) uic":"87478107","lat":"48.646859","lon":" -2.004158"},{"code_postal":"35400","nom_commune":"Saint-Malo","nom_departement":"Ille-et-Vilaine","nom_region":"Bretagne","service attente":"Rechargement portables et tablettes","gare":"Saint-Malo","trigramme":"SMP","code commune":"35288","code(s) uic":"87478107","lat":"48.646859","lon":" -2.004158"},{"code_postal":"36000","nom_commune":"Ch\u00e2teauroux","nom_departement":"Indre","nom_region":"Centre-Val de Loire","service attente":"Rechargement portables et tablettes","gare":"Ch\u00e2teauroux","trigramme":"CTX","code commune":"36044","code(s) uic":"87597005","lat":"46.809737","lon":" 1.699536"},{"code_postal":"37700","nom_commune":"Saint-Pierre-des-Corps","nom_departement":"Indre-et-Loire","nom_region":"Centre-Val de Loire","service attente":"Distributeur d'Histoires Courtes","gare":"Saint-Pierre-des-Corps","trigramme":"SPC","code commune":"37233","code(s) uic":"87571240","lat":"47.386099","lon":" 0.72355"},{"code_postal":"37000","nom_commune":"Tours","nom_departement":"Indre-et-Loire","nom_region":"Centre-Val de Loire","service attente":"Piano en libre service","gare":"Tours","trigramme":"TRS","code commune":"37261","code(s) uic":"87571000","lat":"47.389781","lon":" 0.693703"},{"code_postal":"37100","nom_commune":"Tours","nom_departement":"Indre-et-Loire","nom_region":"Centre-Val de Loire","service attente":"Piano en libre service","gare":"Tours","trigramme":"TRS","code commune":"37261","code(s) uic":"87571000","lat":"47.389781","lon":" 0.693703"},{"code_postal":"37200","nom_commune":"Tours","nom_departement":"Indre-et-Loire","nom_region":"Centre-Val de Loire","service attente":"Piano en libre service","gare":"Tours","trigramme":"TRS","code commune":"37261","code(s) uic":"87571000","lat":"47.389781","lon":" 0.693703"},{"code_postal":"38610","nom_commune":"Gi\u00e8res","nom_departement":"Is\u00e8re","nom_region":"Auvergne-Rh\u00f4ne-Alpes","service attente":"Piano en libre service","gare":"Grenoble Universit\u00e9s - Gi\u00e8res","trigramme":"GRS","code commune":"38179","code(s) uic":"87747402","lat":"45.184877","lon":" 5.78474"},{"code_postal":"38000","nom_commune":"Grenoble","nom_departement":"Is\u00e8re","nom_region":"Auvergne-Rh\u00f4ne-Alpes","service attente":"Distributeur d'Histoires Courtes","gare":"Grenoble","trigramme":"GRE","code commune":"38185","code(s) uic":"87747006","lat":"45.191493","lon":" 5.714584"},{"code_postal":"38000","nom_commune":"Grenoble","nom_departement":"Is\u00e8re","nom_region":"Auvergne-Rh\u00f4ne-Alpes","service attente":"Piano en libre service","gare":"Grenoble","trigramme":"GRE","code commune":"38185","code(s) uic":"87747006","lat":"45.191493","lon":" 5.714584"},{"code_postal":"38100","nom_commune":"Grenoble","nom_departement":"Is\u00e8re","nom_region":"Auvergne-Rh\u00f4ne-Alpes","service attente":"Distributeur d'Histoires Courtes","gare":"Grenoble","trigramme":"GRE","code commune":"38185","code(s) uic":"87747006","lat":"45.191493","lon":" 5.714584"},{"code_postal":"38100","nom_commune":"Grenoble","nom_departement":"Is\u00e8re","nom_region":"Auvergne-Rh\u00f4ne-Alpes","service attente":"Piano en libre service","gare":"Grenoble","trigramme":"GRE","code commune":"38185","code(s) uic":"87747006","lat":"45.191493","lon":" 5.714584"},{"code_postal":"40100","nom_commune":"Dax","nom_departement":"Landes","nom_region":"Nouvelle-Aquitaine","service attente":"Distributeur d'Histoires Courtes","gare":"Dax","trigramme":"DAX","code commune":"40088","code(s) uic":"87673202","lat":"43.720472","lon":" -1.050301"},{"code_postal":"41000","nom_commune":"Blois","nom_departement":"Loir-et-Cher","nom_region":"Centre-Val de Loire","service attente":"Rechargement portables et tablettes","gare":"Blois - Chambord","trigramme":"BLO","code commune":"41018","code(s) uic":"87574004","lat":"47.585445","lon":" 1.323823"},{"code_postal":"42000","nom_commune":"Saint-\u00c9tienne","nom_departement":"Loire","nom_region":"Auvergne-Rh\u00f4ne-Alpes","service attente":"Piano en libre service","gare":"Saint-\u00c9tienne Ch\u00e2teaucreux","trigramme":"SEN","code commune":"42218","code(s) uic":"87726000","lat":"45.443366","lon":" 4.399722"},{"code_postal":"42100","nom_commune":"Saint-\u00c9tienne","nom_departement":"Loire","nom_region":"Auvergne-Rh\u00f4ne-Alpes","service attente":"Piano en libre service","gare":"Saint-\u00c9tienne Ch\u00e2teaucreux","trigramme":"SEN","code commune":"42218","code(s) uic":"87726000","lat":"45.443366","lon":" 4.399722"},{"code_postal":"42100","nom_commune":"Saint-\u00c9tienne","nom_departement":"Loire","nom_region":"Auvergne-Rh\u00f4ne-Alpes","service attente":"Piano en libre service","gare":"Saint-\u00c9tienne Ch\u00e2teaucreux","trigramme":"SEN","code commune":"42218","code(s) uic":"87726000","lat":"45.443366","lon":" 4.399722"},{"code_postal":"42100","nom_commune":"Saint-\u00c9tienne","nom_departement":"Loire","nom_region":"Auvergne-Rh\u00f4ne-Alpes","service attente":"Piano en libre service","gare":"Saint-\u00c9tienne Ch\u00e2teaucreux","trigramme":"SEN","code commune":"42218","code(s) uic":"87726000","lat":"45.443366","lon":" 4.399722"},{"code_postal":"42230","nom_commune":"Saint-\u00c9tienne","nom_departement":"Loire","nom_region":"Auvergne-Rh\u00f4ne-Alpes","service attente":"Piano en libre service","gare":"Saint-\u00c9tienne Ch\u00e2teaucreux","trigramme":"SEN","code commune":"42218","code(s) uic":"87726000","lat":"45.443366","lon":" 4.399722"},{"code_postal":"44500","nom_commune":"La Baule-Escoublac","nom_departement":"Loire-Atlantique","nom_region":"Pays de la Loire","service attente":"Piano en libre service","gare":"La Baule-Escoublac","trigramme":"LBE","code commune":"44055","code(s) uic":"87481754","lat":"47.28869","lon":" -2.389102"},{"code_postal":"44000","nom_commune":"Nantes","nom_departement":"Loire-Atlantique","nom_region":"Pays de la Loire","service attente":"Piano en libre service","gare":"Nantes","trigramme":"NTS","code commune":"44109","code(s) uic":"87481002","lat":"47.216148","lon":" -1.542356"},{"code_postal":"44100","nom_commune":"Nantes","nom_departement":"Loire-Atlantique","nom_region":"Pays de la Loire","service attente":"Piano en libre service","gare":"Nantes","trigramme":"NTS","code commune":"44109","code(s) uic":"87481002","lat":"47.216148","lon":" -1.542356"},{"code_postal":"44200","nom_commune":"Nantes","nom_departement":"Loire-Atlantique","nom_region":"Pays de la Loire","service attente":"Piano en libre service","gare":"Nantes","trigramme":"NTS","code commune":"44109","code(s) uic":"87481002","lat":"47.216148","lon":" -1.542356"},{"code_postal":"44300","nom_commune":"Nantes","nom_departement":"Loire-Atlantique","nom_region":"Pays de la Loire","service attente":"Piano en libre service","gare":"Nantes","trigramme":"NTS","code commune":"44109","code(s) uic":"87481002","lat":"47.216148","lon":" -1.542356"},{"code_postal":"47000","nom_commune":"Agen","nom_departement":"Lot-et-Garonne","nom_region":"Nouvelle-Aquitaine","service attente":"Piano en libre service","gare":"Agen","trigramme":"AGN","code commune":"47001","code(s) uic":"87586008","lat":"44.208311","lon":" 0.620932"},{"code_postal":"48250","nom_commune":"La Bastide-Puylaurent","nom_departement":"Loz\u00e8re","nom_region":"Occitanie","service attente":"Rechargement portables et tablettes","gare":"La Bastide - Saint-Laurent-les-Bains","trigramme":"LBS","code commune":"48021","code(s) uic":"87775171","lat":"44.5934829","lon":" 3.9042849"},{"code_postal":"48300","nom_commune":"Langogne","nom_departement":"Loz\u00e8re","nom_region":"Occitanie","service attente":"Rechargement portables et tablettes","gare":"Langogne","trigramme":"LGG","code commune":"48080","code(s) uic":"87734350","lat":"44.732776","lon":" 3.8573047"},{"code_postal":"48000","nom_commune":"Mende","nom_departement":"Loz\u00e8re","nom_region":"Occitanie","service attente":"Rechargement portables et tablettes","gare":"Mende","trigramme":"MDE","code commune":"48095","code(s) uic":"87783605","lat":"44.522322","lon":" 3.5019875"},{"code_postal":"48200","nom_commune":"Saint-Ch\u00e9ly-d'Apcher","nom_departement":"Loz\u00e8re","nom_region":"Occitanie","service attente":"Rechargement portables et tablettes","gare":"Saint-Ch\u00e9ly-d'Apcher","trigramme":"SYH","code commune":"48140","code(s) uic":"87783241","lat":"44.8017375","lon":" 3.2706895"},{"code_postal":"48800","nom_commune":"Villefort","nom_departement":"Loz\u00e8re","nom_region":"Occitanie","service attente":"Rechargement portables et tablettes","gare":"Villefort","trigramme":"VLF","code commune":"48198","code(s) uic":"87775197","lat":"44.4395099","lon":" 3.9240146"},{"code_postal":"48800","nom_commune":"Villefort","nom_departement":"Loz\u00e8re","nom_region":"Occitanie","service attente":"Rechargement portables et tablettes","gare":"Villefort","trigramme":"VLF","code commune":"48198","code(s) uic":"87775197","lat":"44.4395099","lon":" 3.9240146"},{"code_postal":"49000","nom_commune":"Angers","nom_departement":"Maine-et-Loire","nom_region":"Pays de la Loire","service attente":"Distributeur d'Histoires Courtes","gare":"Angers Saint-Laud","trigramme":"ASL","code commune":"49007","code(s) uic":"87484006","lat":"47.464647","lon":" -0.55682"},{"code_postal":"49000","nom_commune":"Angers","nom_departement":"Maine-et-Loire","nom_region":"Pays de la Loire","service attente":"Piano en libre service","gare":"Angers Saint-Laud","trigramme":"ASL","code commune":"49007","code(s) uic":"87484006","lat":"47.464647","lon":" -0.55682"},{"code_postal":"49100","nom_commune":"Angers","nom_departement":"Maine-et-Loire","nom_region":"Pays de la Loire","service attente":"Distributeur d'Histoires Courtes","gare":"Angers Saint-Laud","trigramme":"ASL","code commune":"49007","code(s) uic":"87484006","lat":"47.464647","lon":" -0.55682"},{"code_postal":"49100","nom_commune":"Angers","nom_departement":"Maine-et-Loire","nom_region":"Pays de la Loire","service attente":"Piano en libre service","gare":"Angers Saint-Laud","trigramme":"ASL","code commune":"49007","code(s) uic":"87484006","lat":"47.464647","lon":" -0.55682"},{"code_postal":"51430","nom_commune":"Bezannes","nom_departement":"Marne","nom_region":"Grand Est","service attente":"Distributeur d'Histoires Courtes","gare":"Champagne-Ardenne TGV","trigramme":"CGV","code commune":"51058","code(s) uic":"87171926","lat":"49.214806","lon":" 3.994632"},{"code_postal":"51430","nom_commune":"Bezannes","nom_departement":"Marne","nom_region":"Grand Est","service attente":"Rechargement portables et tablettes","gare":"Champagne-Ardenne TGV","trigramme":"CGV","code commune":"51058","code(s) uic":"87171926","lat":"49.214806","lon":" 3.994632"},{"code_postal":"51430","nom_commune":"Bezannes","nom_departement":"Marne","nom_region":"Grand Est","service attente":"Piano en libre service","gare":"Champagne-Ardenne TGV","trigramme":"CGV","code commune":"51058","code(s) uic":"87171926","lat":"49.214806","lon":" 3.994632"},{"code_postal":"51100","nom_commune":"Reims","nom_departement":"Marne","nom_region":"Grand Est","service attente":"Rechargement portables et tablettes","gare":"Reims","trigramme":"RMS","code commune":"51454","code(s) uic":"87171009","lat":"49.258978","lon":" 4.024435"},{"code_postal":"51100","nom_commune":"Reims","nom_departement":"Marne","nom_region":"Grand Est","service attente":"Rechargement portables et tablettes","gare":"Reims","trigramme":"RMS","code commune":"51454","code(s) uic":"87171009","lat":"49.258978","lon":" 4.024435"},{"code_postal":"51300","nom_commune":"Vitry-le-Fran\u00e7ois","nom_departement":"Marne","nom_region":"Grand Est","service attente":"Rechargement portables et tablettes","gare":"Vitry-le-Fran\u00e7ois","trigramme":"VYF","code commune":"51649","code(s) uic":"87174276","lat":"48.718142","lon":" 4.587581"},{"code_postal":"53000","nom_commune":"Laval","nom_departement":"Mayenne","nom_region":"Pays de la Loire","service attente":"Rechargement portables et tablettes","gare":"Laval","trigramme":"LAL","code commune":"53130","code(s) uic":"87478404","lat":"48.076206","lon":" -0.760907"},{"code_postal":"57100","nom_commune":"Thionville","nom_departement":"Moselle","nom_region":"Grand Est","service attente":"Piano en libre service","gare":"Thionville","trigramme":"THL","code commune":"57672","code(s) uic":"87191007","lat":"49.353931","lon":" 6.169543"},{"code_postal":"57100","nom_commune":"Thionville","nom_departement":"Moselle","nom_region":"Grand Est","service attente":"Piano en libre service","gare":"Thionville","trigramme":"THL","code commune":"57672","code(s) uic":"87191007","lat":"49.353931","lon":" 6.169543"},{"code_postal":"57100","nom_commune":"Thionville","nom_departement":"Moselle","nom_region":"Grand Est","service attente":"Piano en libre service","gare":"Thionville","trigramme":"THL","code commune":"57672","code(s) uic":"87191007","lat":"49.353931","lon":" 6.169543"},{"code_postal":"57100","nom_commune":"Thionville","nom_departement":"Moselle","nom_region":"Grand Est","service attente":"Piano en libre service","gare":"Thionville","trigramme":"THL","code commune":"57672","code(s) uic":"87191007","lat":"49.353931","lon":" 6.169543"},{"code_postal":"58000","nom_commune":"Nevers","nom_departement":"Ni\u00e8vre","nom_region":"Bourgogne-Franche-Comt\u00e9","service attente":"Rechargement portables et tablettes","gare":"Nevers","trigramme":"NVS","code commune":"58194","code(s) uic":"87696005","lat":"46.987282","lon":" 3.150743"},{"code_postal":"58000","nom_commune":"Nevers","nom_departement":"Ni\u00e8vre","nom_region":"Bourgogne-Franche-Comt\u00e9","service attente":"Piano en libre service","gare":"Nevers","trigramme":"NVS","code commune":"58194","code(s) uic":"87696005","lat":"46.987282","lon":" 3.150743"},{"code_postal":"59270","nom_commune":"Bailleul","nom_departement":"Nord","nom_region":"Hauts-de-France","service attente":"Work & Station","gare":"Bailleul","trigramme":"BIU","code commune":"59043","code(s) uic":"87286179","lat":"50.72916","lon":" 2.73445"},{"code_postal":"59270","nom_commune":"Bailleul","nom_departement":"Nord","nom_region":"Hauts-de-France","service attente":"Work & Station","gare":"Bailleul","trigramme":"BIU","code commune":"59043","code(s) uic":"87286179","lat":"50.72916","lon":" 2.73445"},{"code_postal":"59000","nom_commune":"Lille","nom_departement":"Nord","nom_region":"Hauts-de-France","service attente":"Piano en libre service","gare":"Lille Europe","trigramme":"LEW","code commune":"59350","code(s) uic":"87223263","lat":"50.639224","lon":" 3.075796"},{"code_postal":"59000","nom_commune":"Lille","nom_departement":"Nord","nom_region":"Hauts-de-France","service attente":"Piano en libre service","gare":"Lille Flandres","trigramme":"LLF","code commune":"59350","code(s) uic":"87286005","lat":"50.636577","lon":" 3.06987"},{"code_postal":"59160","nom_commune":"Lille","nom_departement":"Nord","nom_region":"Hauts-de-France","service attente":"Piano en libre service","gare":"Lille Europe","trigramme":"LEW","code commune":"59350","code(s) uic":"87223263","lat":"50.639224","lon":" 3.075796"},{"code_postal":"59160","nom_commune":"Lille","nom_departement":"Nord","nom_region":"Hauts-de-France","service attente":"Piano en libre service","gare":"Lille Flandres","trigramme":"LLF","code commune":"59350","code(s) uic":"87286005","lat":"50.636577","lon":" 3.06987"},{"code_postal":"59260","nom_commune":"Lille","nom_departement":"Nord","nom_region":"Hauts-de-France","service attente":"Piano en libre service","gare":"Lille Europe","trigramme":"LEW","code commune":"59350","code(s) uic":"87223263","lat":"50.639224","lon":" 3.075796"},{"code_postal":"59260","nom_commune":"Lille","nom_departement":"Nord","nom_region":"Hauts-de-France","service attente":"Piano en libre service","gare":"Lille Flandres","trigramme":"LLF","code commune":"59350","code(s) uic":"87286005","lat":"50.636577","lon":" 3.06987"},{"code_postal":"59777","nom_commune":"Lille","nom_departement":"Nord","nom_region":"Hauts-de-France","service attente":"Piano en libre service","gare":"Lille Europe","trigramme":"LEW","code commune":"59350","code(s) uic":"87223263","lat":"50.639224","lon":" 3.075796"},{"code_postal":"59777","nom_commune":"Lille","nom_departement":"Nord","nom_region":"Hauts-de-France","service attente":"Piano en libre service","gare":"Lille Flandres","trigramme":"LLF","code commune":"59350","code(s) uic":"87286005","lat":"50.636577","lon":" 3.06987"},{"code_postal":"59800","nom_commune":"Lille","nom_departement":"Nord","nom_region":"Hauts-de-France","service attente":"Piano en libre service","gare":"Lille Europe","trigramme":"LEW","code commune":"59350","code(s) uic":"87223263","lat":"50.639224","lon":" 3.075796"},{"code_postal":"59800","nom_commune":"Lille","nom_departement":"Nord","nom_region":"Hauts-de-France","service attente":"Piano en libre service","gare":"Lille Flandres","trigramme":"LLF","code commune":"59350","code(s) uic":"87286005","lat":"50.636577","lon":" 3.06987"},{"code_postal":"59300","nom_commune":"Valenciennes","nom_departement":"Nord","nom_region":"Hauts-de-France","service attente":"Piano en libre service","gare":"Valenciennes","trigramme":"VSN","code commune":"59606","code(s) uic":"87343004","lat":"50.363259","lon":" 3.517115"},{"code_postal":"60000","nom_commune":"Beauvais","nom_departement":"Oise","nom_region":"Hauts-de-France","service attente":"Rechargement portables et tablettes","gare":"Beauvais","trigramme":"BVS","code commune":"60057","code(s) uic":"87313510","lat":"49.42648","lon":" 2.08869"},{"code_postal":"60280","nom_commune":"Margny-l\u00e8s-Compi\u00e8gne","nom_departement":"Oise","nom_region":"Hauts-de-France","service attente":"Rechargement portables et tablettes","gare":"Compi\u00e8gne","trigramme":"CPE","code commune":"60382","code(s) uic":"87276691","lat":"49.422005","lon":" 2.823679"},{"code_postal":"62000","nom_commune":"Arras","nom_departement":"Pas-de-Calais","nom_region":"Hauts-de-France","service attente":"Rechargement portables et tablettes","gare":"Arras","trigramme":"ARR","code commune":"62041","code(s) uic":"87342014","lat":"50.286673","lon":" 2.781942"},{"code_postal":"62000","nom_commune":"Arras","nom_departement":"Pas-de-Calais","nom_region":"Hauts-de-France","service attente":"Piano en libre service","gare":"Arras","trigramme":"ARR","code commune":"62041","code(s) uic":"87342014","lat":"50.286673","lon":" 2.781942"},{"code_postal":"62400","nom_commune":"B\u00e9thune","nom_departement":"Pas-de-Calais","nom_region":"Hauts-de-France","service attente":"Piano en libre service","gare":"B\u00e9thune","trigramme":"BET","code commune":"62119","code(s) uic":"87342006","lat":"50.52144","lon":" 2.64055"},{"code_postal":"62185","nom_commune":"Fr\u00e9thun","nom_departement":"Pas-de-Calais","nom_region":"Hauts-de-France","service attente":"Work & Station","gare":"Calais - Fr\u00e9thun","trigramme":"FHS","code commune":"62360","code(s) uic":"87281071","lat":"50.901221","lon":" 1.810891"},{"code_postal":"62185","nom_commune":"Fr\u00e9thun","nom_departement":"Pas-de-Calais","nom_region":"Hauts-de-France","service attente":"Distributeur d'Histoires Courtes","gare":"Calais - Fr\u00e9thun","trigramme":"FHS","code commune":"62360","code(s) uic":"87281071","lat":"50.901221","lon":" 1.810891"},{"code_postal":"62185","nom_commune":"Fr\u00e9thun","nom_departement":"Pas-de-Calais","nom_region":"Hauts-de-France","service attente":"Baby-foot","gare":"Calais - Fr\u00e9thun","trigramme":"FHS","code commune":"62360","code(s) uic":"87281071","lat":"50.901221","lon":" 1.810891"},{"code_postal":"62300","nom_commune":"Lens","nom_departement":"Pas-de-Calais","nom_region":"Hauts-de-France","service attente":"Rechargement portables et tablettes","gare":"Lens","trigramme":"LNS","code commune":"62498","code(s) uic":"87345025","lat":"50.426818","lon":" 2.828254"},{"code_postal":"63000","nom_commune":"Clermont-Ferrand","nom_departement":"Puy-de-D\u00f4me","nom_region":"Auvergne-Rh\u00f4ne-Alpes","service attente":"Piano en libre service","gare":"Clermont-Ferrand","trigramme":"CLF","code commune":"63113","code(s) uic":"87734004","lat":"45.778945","lon":" 3.100543"},{"code_postal":"63100","nom_commune":"Clermont-Ferrand","nom_departement":"Puy-de-D\u00f4me","nom_region":"Auvergne-Rh\u00f4ne-Alpes","service attente":"Piano en libre service","gare":"Clermont-Ferrand","trigramme":"CLF","code commune":"63113","code(s) uic":"87734004","lat":"45.778945","lon":" 3.100543"},{"code_postal":"65100","nom_commune":"Lourdes","nom_departement":"Hautes-Pyr\u00e9n\u00e9es","nom_region":"Occitanie","service attente":"Rechargement portables et tablettes","gare":"Lourdes","trigramme":"LDS","code commune":"65286","code(s) uic":"87671339","lat":"43.10037","lon":" -0.042174"},{"code_postal":"65100","nom_commune":"Lourdes","nom_departement":"Hautes-Pyr\u00e9n\u00e9es","nom_region":"Occitanie","service attente":"Distributeur d'Histoires Courtes","gare":"Lourdes","trigramme":"LDS","code commune":"65286","code(s) uic":"87671339","lat":"43.10037","lon":" -0.042174"},{"code_postal":"65000","nom_commune":"Tarbes","nom_departement":"Hautes-Pyr\u00e9n\u00e9es","nom_region":"Occitanie","service attente":"Distributeur d'Histoires Courtes","gare":"Tarbes","trigramme":"TBS","code commune":"65440","code(s) uic":"87671008","lat":"43.239955","lon":" 0.069415"},{"code_postal":"66000","nom_commune":"Perpignan","nom_departement":"Pyr\u00e9n\u00e9es-Orientales","nom_region":"Occitanie","service attente":"Work & Station","gare":"Perpignan","trigramme":"PPN","code commune":"66136","code(s) uic":"87784009","lat":"42.696292","lon":" 2.879779"},{"code_postal":"66000","nom_commune":"Perpignan","nom_departement":"Pyr\u00e9n\u00e9es-Orientales","nom_region":"Occitanie","service attente":"Distributeur d'Histoires Courtes","gare":"Perpignan","trigramme":"PPN","code commune":"66136","code(s) uic":"87784009","lat":"42.696292","lon":" 2.879779"},{"code_postal":"66100","nom_commune":"Perpignan","nom_departement":"Pyr\u00e9n\u00e9es-Orientales","nom_region":"Occitanie","service attente":"Work & Station","gare":"Perpignan","trigramme":"PPN","code commune":"66136","code(s) uic":"87784009","lat":"42.696292","lon":" 2.879779"},{"code_postal":"66100","nom_commune":"Perpignan","nom_departement":"Pyr\u00e9n\u00e9es-Orientales","nom_region":"Occitanie","service attente":"Distributeur d'Histoires Courtes","gare":"Perpignan","trigramme":"PPN","code commune":"66136","code(s) uic":"87784009","lat":"42.696292","lon":" 2.879779"},{"code_postal":"67150","nom_commune":"Hipsheim","nom_departement":"Bas-Rhin","nom_region":"Grand Est","service attente":"Rechargement portables et tablettes","gare":"Limersheim","trigramme":"LHJ","code commune":"67200","code(s) uic":"87212274","lat":"48.4617328","lon":" 7.6603581"},{"code_postal":"67150","nom_commune":"Hipsheim","nom_departement":"Bas-Rhin","nom_region":"Grand Est","service attente":"Work & Station","gare":"Limersheim","trigramme":"LHJ","code commune":"67200","code(s) uic":"87212274","lat":"48.4617328","lon":" 7.6603581"},{"code_postal":"67150","nom_commune":"Hipsheim","nom_departement":"Bas-Rhin","nom_region":"Grand Est","service attente":"Piano en libre service","gare":"Limersheim","trigramme":"LHJ","code commune":"67200","code(s) uic":"87212274","lat":"48.4617328","lon":" 7.6603581"},{"code_postal":"67000","nom_commune":"Strasbourg","nom_departement":"Bas-Rhin","nom_region":"Grand Est","service attente":"Distributeur d'Histoires Courtes","gare":"Strasbourg","trigramme":"STG","code commune":"67482","code(s) uic":"87212027","lat":"48.584967","lon":" 7.734584"},{"code_postal":"67000","nom_commune":"Strasbourg","nom_departement":"Bas-Rhin","nom_region":"Grand Est","service attente":"Piano en libre service","gare":"Strasbourg","trigramme":"STG","code commune":"67482","code(s) uic":"87212027","lat":"48.584967","lon":" 7.734584"},{"code_postal":"67100","nom_commune":"Strasbourg","nom_departement":"Bas-Rhin","nom_region":"Grand Est","service attente":"Distributeur d'Histoires Courtes","gare":"Strasbourg","trigramme":"STG","code commune":"67482","code(s) uic":"87212027","lat":"48.584967","lon":" 7.734584"},{"code_postal":"67100","nom_commune":"Strasbourg","nom_departement":"Bas-Rhin","nom_region":"Grand Est","service attente":"Piano en libre service","gare":"Strasbourg","trigramme":"STG","code commune":"67482","code(s) uic":"87212027","lat":"48.584967","lon":" 7.734584"},{"code_postal":"67200","nom_commune":"Strasbourg","nom_departement":"Bas-Rhin","nom_region":"Grand Est","service attente":"Distributeur d'Histoires Courtes","gare":"Strasbourg","trigramme":"STG","code commune":"67482","code(s) uic":"87212027","lat":"48.584967","lon":" 7.734584"},{"code_postal":"67200","nom_commune":"Strasbourg","nom_departement":"Bas-Rhin","nom_region":"Grand Est","service attente":"Piano en libre service","gare":"Strasbourg","trigramme":"STG","code commune":"67482","code(s) uic":"87212027","lat":"48.584967","lon":" 7.734584"},{"code_postal":"68000","nom_commune":"Colmar","nom_departement":"Haut-Rhin","nom_region":"Grand Est","service attente":"Piano en libre service","gare":"Colmar","trigramme":"CMR","code commune":"68066","code(s) uic":"87182014","lat":"48.073201","lon":" 7.346967"},{"code_postal":"68000","nom_commune":"Colmar","nom_departement":"Haut-Rhin","nom_region":"Grand Est","service attente":"Rechargement portables et tablettes","gare":"Colmar","trigramme":"CMR","code commune":"68066","code(s) uic":"87182014","lat":"48.073201","lon":" 7.346967"},{"code_postal":"68100","nom_commune":"Mulhouse","nom_departement":"Haut-Rhin","nom_region":"Grand Est","service attente":"Piano en libre service","gare":"Mulhouse","trigramme":"MSE","code commune":"68224","code(s) uic":"87182063","lat":"47.742224","lon":" 7.342396"},{"code_postal":"68100","nom_commune":"Mulhouse","nom_departement":"Haut-Rhin","nom_region":"Grand Est","service attente":"Distributeur d'Histoires Courtes","gare":"Mulhouse","trigramme":"MSE","code commune":"68224","code(s) uic":"87182063","lat":"47.742224","lon":" 7.342396"},{"code_postal":"68200","nom_commune":"Mulhouse","nom_departement":"Haut-Rhin","nom_region":"Grand Est","service attente":"Piano en libre service","gare":"Mulhouse","trigramme":"MSE","code commune":"68224","code(s) uic":"87182063","lat":"47.742224","lon":" 7.342396"},{"code_postal":"68200","nom_commune":"Mulhouse","nom_departement":"Haut-Rhin","nom_region":"Grand Est","service attente":"Distributeur d'Histoires Courtes","gare":"Mulhouse","trigramme":"MSE","code commune":"68224","code(s) uic":"87182063","lat":"47.742224","lon":" 7.342396"},{"code_postal":"68200","nom_commune":"Mulhouse","nom_departement":"Haut-Rhin","nom_region":"Grand Est","service attente":"Piano en libre service","gare":"Mulhouse","trigramme":"MSE","code commune":"68224","code(s) uic":"87182063","lat":"47.742224","lon":" 7.342396"},{"code_postal":"68200","nom_commune":"Mulhouse","nom_departement":"Haut-Rhin","nom_region":"Grand Est","service attente":"Distributeur d'Histoires Courtes","gare":"Mulhouse","trigramme":"MSE","code commune":"68224","code(s) uic":"87182063","lat":"47.742224","lon":" 7.342396"},{"code_postal":"68200","nom_commune":"Mulhouse","nom_departement":"Haut-Rhin","nom_region":"Grand Est","service attente":"Piano en libre service","gare":"Mulhouse","trigramme":"MSE","code commune":"68224","code(s) uic":"87182063","lat":"47.742224","lon":" 7.342396"},{"code_postal":"68200","nom_commune":"Mulhouse","nom_departement":"Haut-Rhin","nom_region":"Grand Est","service attente":"Distributeur d'Histoires Courtes","gare":"Mulhouse","trigramme":"MSE","code commune":"68224","code(s) uic":"87182063","lat":"47.742224","lon":" 7.342396"},{"code_postal":"69400","nom_commune":"Villefranche-sur-Sa\u00f4ne","nom_departement":"Rh\u00f4ne","nom_region":"Auvergne-Rh\u00f4ne-Alpes","service attente":"Piano en libre service","gare":"Villefranche-sur-Sa\u00f4ne","trigramme":"VIS","code commune":"69264","code(s) uic":"87721332","lat":"45.9845","lon":" 4.72077"},{"code_postal":"69124","nom_commune":"Colombier-Saugnieu","nom_departement":"Rh\u00f4ne","nom_region":"Auvergne-Rh\u00f4ne-Alpes","service attente":"Piano en libre service","gare":"Lyon Saint-Exup\u00e9ry TGV","trigramme":"SXA","code commune":"69299","code(s) uic":"87762906","lat":"45.721109","lon":" 5.074969"},{"code_postal":"69124","nom_commune":"Colombier-Saugnieu","nom_departement":"Rh\u00f4ne","nom_region":"Auvergne-Rh\u00f4ne-Alpes","service attente":"Piano en libre service","gare":"Lyon Saint-Exup\u00e9ry TGV","trigramme":"SXA","code commune":"69299","code(s) uic":"87762906","lat":"45.721109","lon":" 5.074969"},{"code_postal":"69125","nom_commune":"Colombier-Saugnieu","nom_departement":"Rh\u00f4ne","nom_region":"Auvergne-Rh\u00f4ne-Alpes","service attente":"Piano en libre service","gare":"Lyon Saint-Exup\u00e9ry TGV","trigramme":"SXA","code commune":"69299","code(s) uic":"87762906","lat":"45.721109","lon":" 5.074969"},{"code_postal":"69125","nom_commune":"Colombier-Saugnieu","nom_departement":"Rh\u00f4ne","nom_region":"Auvergne-Rh\u00f4ne-Alpes","service attente":"Piano en libre service","gare":"Lyon Saint-Exup\u00e9ry TGV","trigramme":"SXA","code commune":"69299","code(s) uic":"87762906","lat":"45.721109","lon":" 5.074969"},{"code_postal":"69002","nom_commune":"Lyon 02","nom_departement":"Rh\u00f4ne","nom_region":"Auvergne-Rh\u00f4ne-Alpes","service attente":"Piano en libre service","gare":"Lyon Perrache","trigramme":"LPR","code commune":"69382","code(s) uic":"87722025","lat":"45.748476","lon":" 4.825733"},{"code_postal":"69002","nom_commune":"Lyon 02","nom_departement":"Rh\u00f4ne","nom_region":"Auvergne-Rh\u00f4ne-Alpes","service attente":"Distributeur d'Histoires Courtes","gare":"Lyon Perrache","trigramme":"LPR","code commune":"69382","code(s) uic":"87722025","lat":"45.748476","lon":" 4.825733"},{"code_postal":"69003","nom_commune":"Lyon 03","nom_departement":"Rh\u00f4ne","nom_region":"Auvergne-Rh\u00f4ne-Alpes","service attente":"Work & Station","gare":"Lyon Part Dieu","trigramme":"LYD","code commune":"69383","code(s) uic":"87723197","lat":"45.760559","lon":" 4.859355"},{"code_postal":"69003","nom_commune":"Lyon 03","nom_departement":"Rh\u00f4ne","nom_region":"Auvergne-Rh\u00f4ne-Alpes","service attente":"Distributeur d'Histoires Courtes","gare":"Lyon Part Dieu","trigramme":"LYD","code commune":"69383","code(s) uic":"87723197","lat":"45.760559","lon":" 4.859355"},{"code_postal":"69003","nom_commune":"Lyon 03","nom_departement":"Rh\u00f4ne","nom_region":"Auvergne-Rh\u00f4ne-Alpes","service attente":"Piano en libre service","gare":"Lyon Part Dieu","trigramme":"LYD","code commune":"69383","code(s) uic":"87723197","lat":"45.760559","lon":" 4.859355"},{"code_postal":"69005","nom_commune":"Lyon 05","nom_departement":"Rh\u00f4ne","nom_region":"Auvergne-Rh\u00f4ne-Alpes","service attente":"Piano en libre service","gare":"Lyon Saint-Paul","trigramme":"LSP","code commune":"69385","code(s) uic":"87721159","lat":"45.76601","lon":" 4.827057"},{"code_postal":"71210","nom_commune":"\u00c9cuisses","nom_departement":"Sa\u00f4ne-et-Loire","nom_region":"Bourgogne-Franche-Comt\u00e9","service attente":"Rechargement portables et tablettes","gare":"Le Creusot - Montceau-les-Mines - Montchanin TGV","trigramme":"LCM","code commune":"71187","code(s) uic":"87694109","lat":"46.765343","lon":" 4.499513"},{"code_postal":"71000","nom_commune":"M\u00e2con","nom_departement":"Sa\u00f4ne-et-Loire","nom_region":"Bourgogne-Franche-Comt\u00e9","service attente":"Rechargement portables et tablettes","gare":"M\u00e2con Loch\u00e9 TGV","trigramme":"MLH","code commune":"71270","code(s) uic":"87725705","lat":"46.282884","lon":" 4.778876"},{"code_postal":"71000","nom_commune":"M\u00e2con","nom_departement":"Sa\u00f4ne-et-Loire","nom_region":"Bourgogne-Franche-Comt\u00e9","service attente":"Rechargement portables et tablettes","gare":"M\u00e2con Loch\u00e9 TGV","trigramme":"MLH","code commune":"71270","code(s) uic":"87725705","lat":"46.282884","lon":" 4.778876"},{"code_postal":"71000","nom_commune":"M\u00e2con","nom_departement":"Sa\u00f4ne-et-Loire","nom_region":"Bourgogne-Franche-Comt\u00e9","service attente":"Rechargement portables et tablettes","gare":"M\u00e2con Loch\u00e9 TGV","trigramme":"MLH","code commune":"71270","code(s) uic":"87725705","lat":"46.282884","lon":" 4.778876"},{"code_postal":"71000","nom_commune":"M\u00e2con","nom_departement":"Sa\u00f4ne-et-Loire","nom_region":"Bourgogne-Franche-Comt\u00e9","service attente":"Rechargement portables et tablettes","gare":"M\u00e2con Loch\u00e9 TGV","trigramme":"MLH","code commune":"71270","code(s) uic":"87725705","lat":"46.282884","lon":" 4.778876"},{"code_postal":"71000","nom_commune":"M\u00e2con","nom_departement":"Sa\u00f4ne-et-Loire","nom_region":"Bourgogne-Franche-Comt\u00e9","service attente":"Rechargement portables et tablettes","gare":"M\u00e2con Loch\u00e9 TGV","trigramme":"MLH","code commune":"71270","code(s) uic":"87725705","lat":"46.282884","lon":" 4.778876"},{"code_postal":"72000","nom_commune":"Le Mans","nom_departement":"Sarthe","nom_region":"Pays de la Loire","service attente":"Distributeur d'Histoires Courtes","gare":"Le Mans","trigramme":"LEN","code commune":"72181","code(s) uic":"87396002","lat":"47.995689","lon":" 0.192578"},{"code_postal":"72000","nom_commune":"Le Mans","nom_departement":"Sarthe","nom_region":"Pays de la Loire","service attente":"Piano en libre service","gare":"Le Mans","trigramme":"LEN","code commune":"72181","code(s) uic":"87396002","lat":"47.995689","lon":" 0.192578"},{"code_postal":"72100","nom_commune":"Le Mans","nom_departement":"Sarthe","nom_region":"Pays de la Loire","service attente":"Distributeur d'Histoires Courtes","gare":"Le Mans","trigramme":"LEN","code commune":"72181","code(s) uic":"87396002","lat":"47.995689","lon":" 0.192578"},{"code_postal":"72100","nom_commune":"Le Mans","nom_departement":"Sarthe","nom_region":"Pays de la Loire","service attente":"Piano en libre service","gare":"Le Mans","trigramme":"LEN","code commune":"72181","code(s) uic":"87396002","lat":"47.995689","lon":" 0.192578"},{"code_postal":"73000","nom_commune":"Chamb\u00e9ry","nom_departement":"Savoie","nom_region":"Auvergne-Rh\u00f4ne-Alpes","service attente":"Piano en libre service","gare":"Chamb\u00e9ry - Challes-les-Eaux","trigramme":"CRL","code commune":"73065","code(s) uic":"87741009","lat":"45.571302","lon":" 5.919547"},{"code_postal":"73000","nom_commune":"Chamb\u00e9ry","nom_departement":"Savoie","nom_region":"Auvergne-Rh\u00f4ne-Alpes","service attente":"Distributeur d'Histoires Courtes","gare":"Chamb\u00e9ry - Challes-les-Eaux","trigramme":"CRL","code commune":"73065","code(s) uic":"87741009","lat":"45.571302","lon":" 5.919547"},{"code_postal":"74000","nom_commune":"Annecy","nom_departement":"Haute-Savoie","nom_region":"Auvergne-Rh\u00f4ne-Alpes","service attente":"Distributeur d'Histoires Courtes","gare":"Annecy","trigramme":"ANY","code commune":"74010","code(s) uic":"87746008","lat":"45.901965","lon":" 6.121835"},{"code_postal":"75007","nom_commune":"Paris 07","nom_departement":"Paris","nom_region":"\u00cele-de-France","service attente":"Work & Station","gare":"Mus\u00e9e d'Orsay","trigramme":"MDS","code commune":"75107","code(s) uic":"87547307","lat":"48.86079","lon":" 2.325671"},{"code_postal":"75008","nom_commune":"Paris 08","nom_departement":"Paris","nom_region":"\u00cele-de-France","service attente":"Piano en libre service","gare":"Gare Saint-Lazare","trigramme":"PSL","code commune":"75108","code(s) uic":"87384008","lat":"48.876242","lon":" 2.325331"},{"code_postal":"75008","nom_commune":"Paris 08","nom_departement":"Paris","nom_region":"\u00cele-de-France","service attente":"Distributeur d'Histoires Courtes","gare":"Gare Saint-Lazare","trigramme":"PSL","code commune":"75108","code(s) uic":"87384008","lat":"48.876242","lon":" 2.325331"},{"code_postal":"75010","nom_commune":"Paris 10","nom_departement":"Paris","nom_region":"\u00cele-de-France","service attente":"Piano en libre service","gare":"Gare du Nord","trigramme":"PNO","code commune":"75110","code(s) uic":"87271023;87271031;87271007","lat":"48.880185","lon":" 2.355151"},{"code_postal":"75010","nom_commune":"Paris 10","nom_departement":"Paris","nom_region":"\u00cele-de-France","service attente":"Distributeur d'Histoires Courtes","gare":"Gare du Nord","trigramme":"PNO","code commune":"75110","code(s) uic":"87271023;87271031;87271007","lat":"48.880185","lon":" 2.355151"},{"code_postal":"75010","nom_commune":"Paris 10","nom_departement":"Paris","nom_region":"\u00cele-de-France","service attente":"Piano en libre service","gare":"Gare de l'Est","trigramme":"PES","code commune":"75110","code(s) uic":"87113001","lat":"48.876742","lon":" 2.358424"},{"code_postal":"75010","nom_commune":"Paris 10","nom_departement":"Paris","nom_region":"\u00cele-de-France","service attente":"Distributeur d'Histoires Courtes","gare":"Gare de l'Est","trigramme":"PES","code commune":"75110","code(s) uic":"87113001","lat":"48.876742","lon":" 2.358424"},{"code_postal":"75010","nom_commune":"Paris 10","nom_departement":"Paris","nom_region":"\u00cele-de-France","service attente":"Work & Station","gare":"Magenta","trigramme":"MAG","code commune":"75110","code(s) uic":"87281873","lat":"48.87986","lon":" 2.35835"},{"code_postal":"75012","nom_commune":"Paris 12","nom_departement":"Paris","nom_region":"\u00cele-de-France","service attente":"Piano en libre service","gare":"Gare de Paris Bercy Bourgogne - Pays d'Auvergne","trigramme":"PBY","code commune":"75112","code(s) uic":"87686667","lat":"48.83917","lon":" 2.38278"},{"code_postal":"75012","nom_commune":"Paris 12","nom_departement":"Paris","nom_region":"\u00cele-de-France","service attente":"Distributeur d'Histoires Courtes","gare":"Gare de Paris Bercy Bourgogne - Pays d'Auvergne","trigramme":"PBY","code commune":"75112","code(s) uic":"87686667","lat":"48.83917","lon":" 2.38278"},{"code_postal":"75012","nom_commune":"Paris 12","nom_departement":"Paris","nom_region":"\u00cele-de-France","service attente":"Playing Wall","gare":"Gare de Paris Bercy Bourgogne - Pays d'Auvergne","trigramme":"PBY","code commune":"75112","code(s) uic":"87686667","lat":"48.83917","lon":" 2.38278"},{"code_postal":"75012","nom_commune":"Paris 12","nom_departement":"Paris","nom_region":"\u00cele-de-France","service attente":"Piano en libre service","gare":"Gare de Lyon","trigramme":"PLY","code commune":"75112","code(s) uic":"87686006;87686030","lat":"48.844888","lon":" 2.37352"},{"code_postal":"75012","nom_commune":"Paris 12","nom_departement":"Paris","nom_region":"\u00cele-de-France","service attente":"Rechargement portables et tablettes","gare":"Gare de Lyon","trigramme":"PLY","code commune":"75112","code(s) uic":"87686006;87686030","lat":"48.844888","lon":" 2.37352"},{"code_postal":"75012","nom_commune":"Paris 12","nom_departement":"Paris","nom_region":"\u00cele-de-France","service attente":"Work & Station","gare":"Gare de Lyon","trigramme":"PLY","code commune":"75112","code(s) uic":"87686006;87686030","lat":"48.844888","lon":" 2.37352"},{"code_postal":"75012","nom_commune":"Paris 12","nom_departement":"Paris","nom_region":"\u00cele-de-France","service attente":"Distributeur d'Histoires Courtes","gare":"Gare de Lyon","trigramme":"PLY","code commune":"75112","code(s) uic":"87686006;87686030","lat":"48.844888","lon":" 2.37352"},{"code_postal":"75013","nom_commune":"Paris 13","nom_departement":"Paris","nom_region":"\u00cele-de-France","service attente":"Distributeur d'Histoires Courtes","gare":"Gare d'Austerlitz","trigramme":"PAZ","code commune":"75113","code(s) uic":"87547026;87547000","lat":"48.842285","lon":" 2.364891"},{"code_postal":"75013","nom_commune":"Paris 13","nom_departement":"Paris","nom_region":"\u00cele-de-France","service attente":"Piano en libre service","gare":"Gare d'Austerlitz","trigramme":"PAZ","code commune":"75113","code(s) uic":"87547026;87547000","lat":"48.842285","lon":" 2.364891"},{"code_postal":"75013","nom_commune":"Paris 13","nom_departement":"Paris","nom_region":"\u00cele-de-France","service attente":"Work & Station","gare":"Biblioth\u00e8que Fran\u00e7ois Mitterrand","trigramme":"BFM","code commune":"75113","code(s) uic":"87328328","lat":"48.82984","lon":" 2.37684"},{"code_postal":"75015","nom_commune":"Paris 15","nom_departement":"Paris","nom_region":"\u00cele-de-France","service attente":"Piano en libre service","gare":"Gare Montparnasse","trigramme":"PMP","code commune":"75115","code(s) uic":"87391102;87391011;87391003","lat":"48.841172","lon":" 2.320514"},{"code_postal":"75016","nom_commune":"Paris 16","nom_departement":"Paris","nom_region":"\u00cele-de-France","service attente":"Work & Station","gare":"Avenue du Pr\u00e9sident Kennedy Maison de Radio France","trigramme":"APK","code commune":"75116","code(s) uic":"87543207","lat":"48.853322","lon":" 2.279969"},{"code_postal":"75016","nom_commune":"Paris 16","nom_departement":"Paris","nom_region":"\u00cele-de-France","service attente":"Work & Station","gare":"Avenue Henri Martin","trigramme":"AHM","code commune":"75116","code(s) uic":"87381046","lat":"48.8644077","lon":" 2.272238"},{"code_postal":"75116","nom_commune":"Paris 16","nom_departement":"Paris","nom_region":"\u00cele-de-France","service attente":"Work & Station","gare":"Avenue du Pr\u00e9sident Kennedy Maison de Radio France","trigramme":"APK","code commune":"75116","code(s) uic":"87543207","lat":"48.853322","lon":" 2.279969"},{"code_postal":"75116","nom_commune":"Paris 16","nom_departement":"Paris","nom_region":"\u00cele-de-France","service attente":"Work & Station","gare":"Avenue Henri Martin","trigramme":"AHM","code commune":"75116","code(s) uic":"87381046","lat":"48.8644077","lon":" 2.272238"},{"code_postal":"75017","nom_commune":"Paris 17","nom_departement":"Paris","nom_region":"\u00cele-de-France","service attente":"Work & Station","gare":"Neuilly Porte Maillot","trigramme":"NPT","code commune":"75117","code(s) uic":"87381020","lat":"48.877983","lon":" 2.284516"},{"code_postal":"75017","nom_commune":"Paris 17","nom_departement":"Paris","nom_region":"\u00cele-de-France","service attente":"Work & Station","gare":"Porte de Clichy","trigramme":"PCL","code commune":"75117","code(s) uic":"87111278","lat":"48.89399","lon":" 2.31462"},{"code_postal":"75017","nom_commune":"Paris 17","nom_departement":"Paris","nom_region":"\u00cele-de-France","service attente":"Work & Station","gare":"P\u00e9reire Levallois","trigramme":"PRR","code commune":"75117","code(s) uic":"87381012","lat":"48.8853581","lon":" 2.2979465"},{"code_postal":"75018","nom_commune":"Paris 18","nom_departement":"Paris","nom_region":"\u00cele-de-France","service attente":"Work & Station","gare":"Rosa Parks","trigramme":"ROK","code commune":"75118","code(s) uic":"87654798","lat":"48.89602","lon":" 2.37397"},{"code_postal":"76000","nom_commune":"Rouen","nom_departement":"Seine-Maritime","nom_region":"Normandie","service attente":"Power & Station","gare":"Rouen Rive Droite","trigramme":"RRD","code commune":"76540","code(s) uic":"87411017","lat":"49.448764","lon":" 1.094087"},{"code_postal":"76100","nom_commune":"Rouen","nom_departement":"Seine-Maritime","nom_region":"Normandie","service attente":"Power & Station","gare":"Rouen Rive Droite","trigramme":"RRD","code commune":"76540","code(s) uic":"87411017","lat":"49.448764","lon":" 1.094087"},{"code_postal":"77210","nom_commune":"Avon","nom_departement":"Seine-et-Marne","nom_region":"\u00cele-de-France","service attente":"Rechargement portables et tablettes","gare":"Fontainebleau - Avon","trigramme":"FON","code commune":"77014","code(s) uic":"87682211","lat":"48.416371","lon":" 2.72634"},{"code_postal":"77500","nom_commune":"Chelles","nom_departement":"Seine-et-Marne","nom_region":"\u00cele-de-France","service attente":"Distributeur d'Histoires Courtes","gare":"Chelles - Gournay","trigramme":"CSG","code commune":"77108","code(s) uic":"87116111","lat":"48.874128","lon":" 2.582484"},{"code_postal":"77500","nom_commune":"Chelles","nom_departement":"Seine-et-Marne","nom_region":"\u00cele-de-France","service attente":"Work & Station","gare":"Vaires - Torcy","trigramme":"VAI","code commune":"77108","code(s) uic":"87116293","lat":"48.874953","lon":" 2.639986"},{"code_postal":"77500","nom_commune":"Chelles","nom_departement":"Seine-et-Marne","nom_region":"\u00cele-de-France","service attente":"Distributeur d'Histoires Courtes","gare":"Chelles - Gournay","trigramme":"CSG","code commune":"77108","code(s) uic":"87116111","lat":"48.874128","lon":" 2.582484"},{"code_postal":"77500","nom_commune":"Chelles","nom_departement":"Seine-et-Marne","nom_region":"\u00cele-de-France","service attente":"Work & Station","gare":"Vaires - Torcy","trigramme":"VAI","code commune":"77108","code(s) uic":"87116293","lat":"48.874953","lon":" 2.639986"},{"code_postal":"77700","nom_commune":"Chessy","nom_departement":"Seine-et-Marne","nom_region":"\u00cele-de-France","service attente":"Work & Station","gare":"Marne-la-Vall\u00e9e Chessy","trigramme":"MLV","code commune":"77111","code(s) uic":"87111849","lat":"48.869856","lon":" 2.78272"},{"code_postal":"77120","nom_commune":"Coulommiers","nom_departement":"Seine-et-Marne","nom_region":"\u00cele-de-France","service attente":"Work & Station","gare":"Coulommiers","trigramme":"CQU","code commune":"77131","code(s) uic":"87116301","lat":"48.808006","lon":" 3.08225"},{"code_postal":"77580","nom_commune":"Cr\u00e9cy-la-Chapelle","nom_departement":"Seine-et-Marne","nom_region":"\u00cele-de-France","service attente":"Work & Station","gare":"Cr\u00e9cy-la-Chapelle","trigramme":"CLC","code commune":"77142","code(s) uic":"87116772","lat":"48.859391","lon":" 2.905748"},{"code_postal":"77580","nom_commune":"Cr\u00e9cy-la-Chapelle","nom_departement":"Seine-et-Marne","nom_region":"\u00cele-de-France","service attente":"Work & Station","gare":"Cr\u00e9cy-la-Chapelle","trigramme":"CLC","code commune":"77142","code(s) uic":"87116772","lat":"48.859391","lon":" 2.905748"},{"code_postal":"77184","nom_commune":"\u00c9merainville","nom_departement":"Seine-et-Marne","nom_region":"\u00cele-de-France","service attente":"Work & Station","gare":"\u00c9merainville - Pontault-Combault","trigramme":"EMR","code commune":"77169","code(s) uic":"87116046","lat":"48.806034","lon":" 2.618004"},{"code_postal":"77184","nom_commune":"\u00c9merainville","nom_departement":"Seine-et-Marne","nom_region":"\u00cele-de-France","service attente":"Work & Station","gare":"\u00c9merainville - Pontault-Combault","trigramme":"EMR","code commune":"77169","code(s) uic":"87116046","lat":"48.806034","lon":" 2.618004"},{"code_postal":"77450","nom_commune":"Esbly","nom_departement":"Seine-et-Marne","nom_region":"\u00cele-de-France","service attente":"Work & Station","gare":"Esbly","trigramme":"EYA","code commune":"77171","code(s) uic":"87116327","lat":"48.90314191","lon":" 2.81059946"},{"code_postal":"77260","nom_commune":"La Fert\u00e9-sous-Jouarre","nom_departement":"Seine-et-Marne","nom_region":"\u00cele-de-France","service attente":"Work & Station","gare":"La Fert\u00e9-sous-Jouarre","trigramme":"LFJ","code commune":"77183","code(s) uic":"87116517","lat":"48.950741","lon":" 3.125577"},{"code_postal":"77730","nom_commune":"Sa\u00e2cy-sur-Marne","nom_departement":"Seine-et-Marne","nom_region":"\u00cele-de-France","service attente":"Work & Station","gare":"Nanteuil - Sa\u00e2cy","trigramme":"NAU","code commune":"77397","code(s) uic":"87116558","lat":"48.9738082","lon":" 3.2200172"},{"code_postal":"77176","nom_commune":"Savigny-le-Temple","nom_departement":"Seine-et-Marne","nom_region":"\u00cele-de-France","service attente":"Work & Station","gare":"Savigny-le-Temple - Nandy","trigramme":"ZTN","code commune":"77445","code(s) uic":"87682187","lat":"48.595519","lon":" 2.583678"},{"code_postal":"77400","nom_commune":"Thorigny-sur-Marne","nom_departement":"Seine-et-Marne","nom_region":"\u00cele-de-France","service attente":"Work & Station","gare":"Lagny - Thorigny","trigramme":"LGY","code commune":"77464","code(s) uic":"87116319","lat":"48.88218325","lon":" 2.70404228"},{"code_postal":"78260","nom_commune":"Ach\u00e8res","nom_departement":"Yvelines","nom_region":"\u00cele-de-France","service attente":"Work & Station","gare":"Ach\u00e8res Ville","trigramme":"ACW","code commune":"78005","code(s) uic":"87381657","lat":"48.97011","lon":" 2.07739"},{"code_postal":"78170","nom_commune":"La Celle-Saint-Cloud","nom_departement":"Yvelines","nom_region":"\u00cele-de-France","service attente":"Work & Station","gare":"La Celle-Saint-Cloud","trigramme":"LCB","code commune":"78126","code(s) uic":"87382432","lat":"48.84259","lon":" 2.13797"},{"code_postal":"78550","nom_commune":"Houdan","nom_departement":"Yvelines","nom_region":"\u00cele-de-France","service attente":"Work & Station","gare":"Houdan","trigramme":"HOA","code commune":"78310","code(s) uic":"87393462","lat":"48.7958005","lon":" 1.6027371"},{"code_postal":"78800","nom_commune":"Houilles","nom_departement":"Yvelines","nom_region":"\u00cele-de-France","service attente":"Rechargement portables et tablettes","gare":"Houilles - Carri\u00e8res-sur-Seine","trigramme":"HAR","code commune":"78311","code(s) uic":"87386409","lat":"48.9199636","lon":" 2.1850828"},{"code_postal":"78430","nom_commune":"Louveciennes","nom_departement":"Yvelines","nom_region":"\u00cele-de-France","service attente":"Work & Station","gare":"Louveciennes","trigramme":"LFC","code commune":"78350","code(s) uic":"87382457","lat":"48.8610361","lon":" 2.1230176"},{"code_postal":"78160","nom_commune":"Marly-le-Roi","nom_departement":"Yvelines","nom_region":"\u00cele-de-France","service attente":"Work & Station","gare":"Marly-le-Roi","trigramme":"MLR","code commune":"78372","code(s) uic":"87382465","lat":"48.8713084","lon":" 2.0965436"},{"code_postal":"78160","nom_commune":"Marly-le-Roi","nom_departement":"Yvelines","nom_region":"\u00cele-de-France","service attente":"Work & Station","gare":"Marly-le-Roi","trigramme":"MLR","code commune":"78372","code(s) uic":"87382465","lat":"48.8713084","lon":" 2.0965436"},{"code_postal":"78490","nom_commune":"M\u00e9r\u00e9","nom_departement":"Yvelines","nom_region":"\u00cele-de-France","service attente":"Work & Station","gare":"Montfort-l'Amaury - M\u00e9r\u00e9","trigramme":"MLM","code commune":"78389","code(s) uic":"87393892","lat":"48.80224","lon":" 1.8153507"},{"code_postal":"78180","nom_commune":"Montigny-le-Bretonneux","nom_departement":"Yvelines","nom_region":"\u00cele-de-France","service attente":"Work & Station","gare":"Saint-Quentin en Yvelines - Montigny-le-Bretonneux","trigramme":"SQY","code commune":"78423","code(s) uic":"87393843","lat":"48.78657","lon":" 2.04523"},{"code_postal":"78370","nom_commune":"Plaisir","nom_departement":"Yvelines","nom_region":"\u00cele-de-France","service attente":"Work & Station","gare":"Plaisir - Grignon","trigramme":"PGS","code commune":"78490","code(s) uic":"87393421","lat":"48.8316509","lon":" 1.9432973"},{"code_postal":"78120","nom_commune":"Rambouillet","nom_departement":"Yvelines","nom_region":"\u00cele-de-France","service attente":"Work & Station","gare":"Rambouillet","trigramme":"RBT","code commune":"78517","code(s) uic":"87393314","lat":"48.64377","lon":" 1.83154"},{"code_postal":"78210","nom_commune":"Saint-Cyr-l'\u00c9cole","nom_departement":"Yvelines","nom_region":"\u00cele-de-France","service attente":"Work & Station","gare":"Saint-Cyr","trigramme":"SCR","code commune":"78545","code(s) uic":"87393223","lat":"48.7990666","lon":" 2.0733739"},{"code_postal":"78000","nom_commune":"Versailles","nom_departement":"Yvelines","nom_region":"\u00cele-de-France","service attente":"Rechargement portables et tablettes","gare":"Versailles Chantiers","trigramme":"VCR","code commune":"78646","code(s) uic":"87393009","lat":"48.7958264","lon":" 2.1358827"},{"code_postal":"78220","nom_commune":"Viroflay","nom_departement":"Yvelines","nom_region":"\u00cele-de-France","service attente":"Work & Station","gare":"Viroflay Rive Gauche","trigramme":"VFG","code commune":"78686","code(s) uic":"87393215","lat":"48.800517","lon":" 2.1711466"},{"code_postal":"78220","nom_commune":"Viroflay","nom_departement":"Yvelines","nom_region":"\u00cele-de-France","service attente":"Work & Station","gare":"Chaville - V\u00e9lizy","trigramme":"CHV","code commune":"78686","code(s) uic":"87393173","lat":"48.7998005","lon":" 2.1845267"},{"code_postal":"79400","nom_commune":"Saint-Maixent-l'\u00c9cole","nom_departement":"Deux-S\u00e8vres","nom_region":"Nouvelle-Aquitaine","service attente":"Piano en libre service","gare":"Saint-Maixent-L'\u00c9cole","trigramme":"SMX","code commune":"79270","code(s) uic":"87485490","lat":"46.406607","lon":" -0.201073"},{"code_postal":"80000","nom_commune":"Amiens","nom_departement":"Somme","nom_region":"Hauts-de-France","service attente":"Piano en libre service","gare":"Amiens","trigramme":"AMS","code commune":"80021","code(s) uic":"87313874","lat":"49.890746","lon":" 2.312592"},{"code_postal":"80080","nom_commune":"Amiens","nom_departement":"Somme","nom_region":"Hauts-de-France","service attente":"Piano en libre service","gare":"Amiens","trigramme":"AMS","code commune":"80021","code(s) uic":"87313874","lat":"49.890746","lon":" 2.312592"},{"code_postal":"80090","nom_commune":"Amiens","nom_departement":"Somme","nom_region":"Hauts-de-France","service attente":"Piano en libre service","gare":"Amiens","trigramme":"AMS","code commune":"80021","code(s) uic":"87313874","lat":"49.890746","lon":" 2.312592"},{"code_postal":"82000","nom_commune":"Montauban","nom_departement":"Tarn-et-Garonne","nom_region":"Occitanie","service attente":"Rechargement portables et tablettes","gare":"Montauban Ville Bourbon","trigramme":"MBN","code commune":"82121","code(s) uic":"87611244","lat":"44.014387","lon":" 1.341496"},{"code_postal":"82000","nom_commune":"Montauban","nom_departement":"Tarn-et-Garonne","nom_region":"Occitanie","service attente":"Piano en libre service","gare":"Montauban Ville Bourbon","trigramme":"MBN","code commune":"82121","code(s) uic":"87611244","lat":"44.014387","lon":" 1.341496"},{"code_postal":"83460","nom_commune":"Les Arcs","nom_departement":"Var","nom_region":"Provence-Alpes-C\u00f4te d'Azur","service attente":"Distributeur d'Histoires Courtes","gare":"Les Arcs - Draguignan","trigramme":"LAC","code commune":"83004","code(s) uic":"87755447","lat":"43.455524","lon":" 6.482498"},{"code_postal":"83000","nom_commune":"Toulon","nom_departement":"Var","nom_region":"Provence-Alpes-C\u00f4te d'Azur","service attente":"Rechargement portables et tablettes","gare":"Toulon Sainte-Musse","trigramme":"TSM","code commune":"83137","code(s) uic":"87742262","lat":"43.125113642636705","lon":" 5.972755104236321"},{"code_postal":"83000","nom_commune":"Toulon","nom_departement":"Var","nom_region":"Provence-Alpes-C\u00f4te d'Azur","service attente":"Piano en libre service","gare":"Toulon","trigramme":"TLN","code commune":"83137","code(s) uic":"87755009","lat":"43.12837","lon":" 5.929293"},{"code_postal":"83100","nom_commune":"Toulon","nom_departement":"Var","nom_region":"Provence-Alpes-C\u00f4te d'Azur","service attente":"Rechargement portables et tablettes","gare":"Toulon Sainte-Musse","trigramme":"TSM","code commune":"83137","code(s) uic":"87742262","lat":"43.125113642636705","lon":" 5.972755104236321"},{"code_postal":"83100","nom_commune":"Toulon","nom_departement":"Var","nom_region":"Provence-Alpes-C\u00f4te d'Azur","service attente":"Piano en libre service","gare":"Toulon","trigramme":"TLN","code commune":"83137","code(s) uic":"87755009","lat":"43.12837","lon":" 5.929293"},{"code_postal":"83200","nom_commune":"Toulon","nom_departement":"Var","nom_region":"Provence-Alpes-C\u00f4te d'Azur","service attente":"Rechargement portables et tablettes","gare":"Toulon Sainte-Musse","trigramme":"TSM","code commune":"83137","code(s) uic":"87742262","lat":"43.125113642636705","lon":" 5.972755104236321"},{"code_postal":"83200","nom_commune":"Toulon","nom_departement":"Var","nom_region":"Provence-Alpes-C\u00f4te d'Azur","service attente":"Piano en libre service","gare":"Toulon","trigramme":"TLN","code commune":"83137","code(s) uic":"87755009","lat":"43.12837","lon":" 5.929293"},{"code_postal":"84000","nom_commune":"Avignon","nom_departement":"Vaucluse","nom_region":"Provence-Alpes-C\u00f4te d'Azur","service attente":"Piano en libre service","gare":"Avignon TGV","trigramme":"AVV","code commune":"84007","code(s) uic":"87318964;87981902","lat":"43.921586","lon":" 4.786079"},{"code_postal":"84000","nom_commune":"Avignon","nom_departement":"Vaucluse","nom_region":"Provence-Alpes-C\u00f4te d'Azur","service attente":"Distributeur d'Histoires Courtes","gare":"Avignon TGV","trigramme":"AVV","code commune":"84007","code(s) uic":"87318964;87981902","lat":"43.921586","lon":" 4.786079"},{"code_postal":"84000","nom_commune":"Avignon","nom_departement":"Vaucluse","nom_region":"Provence-Alpes-C\u00f4te d'Azur","service attente":"Piano en libre service","gare":"Avignon Centre","trigramme":"AVI","code commune":"84007","code(s) uic":"87765008","lat":"43.9419","lon":" 4.805281"},{"code_postal":"84140","nom_commune":"Avignon","nom_departement":"Vaucluse","nom_region":"Provence-Alpes-C\u00f4te d'Azur","service attente":"Piano en libre service","gare":"Avignon TGV","trigramme":"AVV","code commune":"84007","code(s) uic":"87318964;87981902","lat":"43.921586","lon":" 4.786079"},{"code_postal":"84140","nom_commune":"Avignon","nom_departement":"Vaucluse","nom_region":"Provence-Alpes-C\u00f4te d'Azur","service attente":"Distributeur d'Histoires Courtes","gare":"Avignon TGV","trigramme":"AVV","code commune":"84007","code(s) uic":"87318964;87981902","lat":"43.921586","lon":" 4.786079"},{"code_postal":"84140","nom_commune":"Avignon","nom_departement":"Vaucluse","nom_region":"Provence-Alpes-C\u00f4te d'Azur","service attente":"Piano en libre service","gare":"Avignon Centre","trigramme":"AVI","code commune":"84007","code(s) uic":"87765008","lat":"43.9419","lon":" 4.805281"},{"code_postal":"85000","nom_commune":"La Roche-sur-Yon","nom_departement":"Vend\u00e9e","nom_region":"Pays de la Loire","service attente":"Distributeur d'Histoires Courtes","gare":"La Roche-sur-Yon","trigramme":"LRY","code commune":"85191","code(s) uic":"87486019","lat":"46.67212","lon":" -1.435621"},{"code_postal":"85100","nom_commune":"Les Sables-d'Olonne","nom_departement":"Vend\u00e9e","nom_region":"Pays de la Loire","service attente":"Piano en libre service","gare":"Les Sables-d'Olonne","trigramme":"LSO","code commune":"85194","code(s) uic":"87486449","lat":"46.499917","lon":" -1.78105"},{"code_postal":"86000","nom_commune":"Poitiers","nom_departement":"Vienne","nom_region":"Nouvelle-Aquitaine","service attente":"Piano en libre service","gare":"Poitiers","trigramme":"PST","code commune":"86194","code(s) uic":"87575001","lat":"46.582275","lon":" 0.333241"},{"code_postal":"90400","nom_commune":"Meroux","nom_departement":"Territoire de Belfort","nom_region":"Bourgogne-Franche-Comt\u00e9","service attente":"Piano en libre service","gare":"Belfort - Montb\u00e9liard TGV","trigramme":"BFB","code commune":"90068","code(s) uic":"87300822","lat":"47.585937","lon":" 6.897687"},{"code_postal":"90400","nom_commune":"Meroux","nom_departement":"Territoire de Belfort","nom_region":"Bourgogne-Franche-Comt\u00e9","service attente":"Rechargement portables et tablettes","gare":"Belfort - Montb\u00e9liard TGV","trigramme":"BFB","code commune":"90068","code(s) uic":"87300822","lat":"47.585937","lon":" 6.897687"},{"code_postal":"91290","nom_commune":"Arpajon","nom_departement":"Essonne","nom_region":"\u00cele-de-France","service attente":"Work & Station","gare":"Arpajon","trigramme":"ARP","code commune":"91021","code(s) uic":"87545467","lat":"48.58617","lon":" 2.24112"},{"code_postal":"91610","nom_commune":"Ballancourt-sur-Essonne","nom_departement":"Essonne","nom_region":"\u00cele-de-France","service attente":"Work & Station","gare":"Ballancourt","trigramme":"BUR","code commune":"91045","code(s) uic":"87681437","lat":"48.532114","lon":" 2.371274"},{"code_postal":"91220","nom_commune":"Br\u00e9tigny-sur-Orge","nom_departement":"Essonne","nom_region":"\u00cele-de-France","service attente":"Work & Station","gare":"Br\u00e9tigny","trigramme":"BYR","code commune":"91103","code(s) uic":"87545194","lat":"48.606683","lon":" 2.302378"},{"code_postal":"91800","nom_commune":"Brunoy","nom_departement":"Essonne","nom_region":"\u00cele-de-France","service attente":"Work & Station","gare":"Brunoy","trigramme":"BNY","code commune":"91114","code(s) uic":"87682120","lat":"48.699112","lon":" 2.506422"},{"code_postal":"91100","nom_commune":"Corbeil-Essonnes","nom_departement":"Essonne","nom_region":"\u00cele-de-France","service attente":"Work & Station","gare":"Corbeil-Essonnes","trigramme":"COE","code commune":"91174","code(s) uic":"87681007","lat":"48.61403","lon":" 2.47401"},{"code_postal":"91360","nom_commune":"\u00c9pinay-sur-Orge","nom_departement":"Essonne","nom_region":"\u00cele-de-France","service attente":"Work & Station","gare":"\u00c9pinay-sur-Orge","trigramme":"EYO","code commune":"91216","code(s) uic":"87545228","lat":"48.66952","lon":" 2.33182"},{"code_postal":"91150","nom_commune":"\u00c9tampes","nom_departement":"Essonne","nom_region":"\u00cele-de-France","service attente":"Work & Station","gare":"\u00c9tampes","trigramme":"ETP","code commune":"91223","code(s) uic":"87545137","lat":"48.436661","lon":" 2.159468"},{"code_postal":"91590","nom_commune":"La Fert\u00e9-Alais","nom_departement":"Essonne","nom_region":"\u00cele-de-France","service attente":"Work & Station","gare":"La Fert\u00e9-Alais","trigramme":"LFA","code commune":"91232","code(s) uic":"87681452","lat":"48.484876","lon":" 2.35161"},{"code_postal":"91350","nom_commune":"Grigny","nom_departement":"Essonne","nom_region":"\u00cele-de-France","service attente":"Work & Station","gare":"Grigny Centre","trigramme":"GGG","code commune":"91286","code(s) uic":"87681379","lat":"48.65343","lon":" 2.395797"},{"code_postal":"91300","nom_commune":"Massy","nom_departement":"Essonne","nom_region":"\u00cele-de-France","service attente":"Piano en libre service","gare":"Massy TGV","trigramme":"MPW","code commune":"91377","code(s) uic":"87393702","lat":"48.725758","lon":" 2.261254"},{"code_postal":"91300","nom_commune":"Massy","nom_departement":"Essonne","nom_region":"\u00cele-de-France","service attente":"Rechargement portables et tablettes","gare":"Massy TGV","trigramme":"MPW","code commune":"91377","code(s) uic":"87393702","lat":"48.725758","lon":" 2.261254"},{"code_postal":"91230","nom_commune":"Montgeron","nom_departement":"Essonne","nom_region":"\u00cele-de-France","service attente":"Work & Station","gare":"Montgeron - Crosne","trigramme":"KRW","code commune":"91421","code(s) uic":"87682104","lat":"48.708094","lon":" 2.462224"},{"code_postal":"91240","nom_commune":"Saint-Michel-sur-Orge","nom_departement":"Essonne","nom_region":"\u00cele-de-France","service attente":"Work & Station","gare":"Saint-Michel-sur-Orge","trigramme":"SHO","code commune":"91570","code(s) uic":"87545202","lat":"48.635479","lon":" 2.306632"},{"code_postal":"91270","nom_commune":"Vigneux-sur-Seine","nom_departement":"Essonne","nom_region":"\u00cele-de-France","service attente":"Work & Station","gare":"Vigneux-sur-Seine","trigramme":"VGS","code commune":"91657","code(s) uic":"87681304","lat":"48.70816","lon":" 2.41446"},{"code_postal":"92600","nom_commune":"Asni\u00e8res-sur-Seine","nom_departement":"Hauts-de-Seine","nom_region":"\u00cele-de-France","service attente":"Work & Station","gare":"Asni\u00e8res-sur-Seine","trigramme":"AEE","code commune":"92004","code(s) uic":"87381137","lat":"48.9058","lon":" 2.28324"},{"code_postal":"92270","nom_commune":"Bois-Colombes","nom_departement":"Hauts-de-Seine","nom_region":"\u00cele-de-France","service attente":"Work & Station","gare":"Les Vall\u00e9es","trigramme":"LWA","code commune":"92009","code(s) uic":"87386300","lat":"48.913408","lon":" 2.257909"},{"code_postal":"92270","nom_commune":"Bois-Colombes","nom_departement":"Hauts-de-Seine","nom_region":"\u00cele-de-France","service attente":"Work & Station","gare":"Bois-Colombes","trigramme":"BCO","code commune":"92009","code(s) uic":"87381079","lat":"48.91348","lon":" 2.27256"},{"code_postal":"92700","nom_commune":"Colombes","nom_departement":"Hauts-de-Seine","nom_region":"\u00cele-de-France","service attente":"Work & Station","gare":"Colombes","trigramme":"CBK","code commune":"92025","code(s) uic":"87381087","lat":"48.92383","lon":" 2.25939"},{"code_postal":"92700","nom_commune":"Colombes","nom_departement":"Hauts-de-Seine","nom_region":"\u00cele-de-France","service attente":"Work & Station","gare":"La Garenne-Colombes","trigramme":"LGK","code commune":"92025","code(s) uic":"87386003","lat":"48.9093952","lon":" 2.2396414"},{"code_postal":"92400","nom_commune":"Courbevoie","nom_departement":"Hauts-de-Seine","nom_region":"\u00cele-de-France","service attente":"Work & Station","gare":"B\u00e9con les Bruy\u00e8res","trigramme":"BEC","code commune":"92026","code(s) uic":"87382002","lat":"48.90592","lon":" 2.26838"},{"code_postal":"92190","nom_commune":"Meudon","nom_departement":"Hauts-de-Seine","nom_region":"\u00cele-de-France","service attente":"Work & Station","gare":"Meudon","trigramme":"MDN","code commune":"92048","code(s) uic":"87393108","lat":"48.8147527","lon":" 2.2410999"},{"code_postal":"92360","nom_commune":"Meudon","nom_departement":"Hauts-de-Seine","nom_region":"\u00cele-de-France","service attente":"Work & Station","gare":"Meudon","trigramme":"MDN","code commune":"92048","code(s) uic":"87393108","lat":"48.8147527","lon":" 2.2410999"},{"code_postal":"92800","nom_commune":"Puteaux","nom_departement":"Hauts-de-Seine","nom_region":"\u00cele-de-France","service attente":"Work & Station","gare":"Puteaux","trigramme":"PTX","code commune":"92062","code(s) uic":"87382382","lat":"48.88351","lon":" 2.2335"},{"code_postal":"92210","nom_commune":"Saint-Cloud","nom_departement":"Hauts-de-Seine","nom_region":"\u00cele-de-France","service attente":"Work & Station","gare":"Garches - Marnes-la-Coquette","trigramme":"GMC","code commune":"92064","code(s) uic":"87382259","lat":"48.83839","lon":" 2.18692"},{"code_postal":"92210","nom_commune":"Saint-Cloud","nom_departement":"Hauts-de-Seine","nom_region":"\u00cele-de-France","service attente":"Work & Station","gare":"Le Val d'Or","trigramme":"VDO","code commune":"92064","code(s) uic":"87382366","lat":"48.85645","lon":" 2.21636"},{"code_postal":"93120","nom_commune":"La Courneuve","nom_departement":"Seine-Saint-Denis","nom_region":"\u00cele-de-France","service attente":"Work & Station","gare":"Dugny - La Courneuve T11","trigramme":"DLC","code commune":"93027","code(s) uic":"87697342","lat":"48.9439","lon":" 2.4115"},{"code_postal":"93800","nom_commune":"\u00c9pinay-sur-Seine","nom_departement":"Seine-Saint-Denis","nom_region":"\u00cele-de-France","service attente":"Work & Station","gare":"\u00c9pinay-sur-Seine","trigramme":"EYS","code commune":"93031","code(s) uic":"87271148","lat":"48.9542084","lon":" 2.3026142"},{"code_postal":"93220","nom_commune":"Gagny","nom_departement":"Seine-Saint-Denis","nom_region":"\u00cele-de-France","service attente":"Work & Station","gare":"Gagny","trigramme":"GNQ","code commune":"93032","code(s) uic":"87113514","lat":"48.883125","lon":" 2.527106"},{"code_postal":"93130","nom_commune":"Noisy-le-Sec","nom_departement":"Seine-Saint-Denis","nom_region":"\u00cele-de-France","service attente":"Work & Station","gare":"Noisy-le-Sec","trigramme":"NSY","code commune":"93053","code(s) uic":"87113217","lat":"48.896288","lon":" 2.459306"},{"code_postal":"93340","nom_commune":"Le Raincy","nom_departement":"Seine-Saint-Denis","nom_region":"\u00cele-de-France","service attente":"Work & Station","gare":"Le Raincy - Villemomble - Montfermeil","trigramme":"RVM","code commune":"93062","code(s) uic":"87113472","lat":"48.889325","lon":" 2.512062"},{"code_postal":"93110","nom_commune":"Rosny-sous-Bois","nom_departement":"Seine-Saint-Denis","nom_region":"\u00cele-de-France","service attente":"Work & Station","gare":"Rosny Bois Perrier","trigramme":"RBI","code commune":"93064","code(s) uic":"87113696","lat":"48.882568","lon":" 2.480987"},{"code_postal":"93200","nom_commune":"Saint-Denis","nom_departement":"Seine-Saint-Denis","nom_region":"\u00cele-de-France","service attente":"Work & Station","gare":"Stade de France Saint-Denis","trigramme":"SFD","code commune":"93066","code(s) uic":"87164780","lat":"48.91779","lon":" 2.35134"},{"code_postal":"93210","nom_commune":"Saint-Denis","nom_departement":"Seine-Saint-Denis","nom_region":"\u00cele-de-France","service attente":"Work & Station","gare":"Stade de France Saint-Denis","trigramme":"SFD","code commune":"93066","code(s) uic":"87164780","lat":"48.91779","lon":" 2.35134"},{"code_postal":"93270","nom_commune":"Sevran","nom_departement":"Seine-Saint-Denis","nom_region":"\u00cele-de-France","service attente":"Work & Station","gare":"Sevran - Livry","trigramme":"SEV","code commune":"93071","code(s) uic":"87271429","lat":"48.93601","lon":" 2.53484"},{"code_postal":"93290","nom_commune":"Tremblay-en-France","nom_departement":"Seine-Saint-Denis","nom_region":"\u00cele-de-France","service attente":"Piano en libre service","gare":"A\u00e9roport Charles de Gaulle 2 TGV","trigramme":"RYT","code commune":"93073","code(s) uic":"87001479;87271494","lat":"49.003652","lon":" 2.570892"},{"code_postal":"93290","nom_commune":"Tremblay-en-France","nom_departement":"Seine-Saint-Denis","nom_region":"\u00cele-de-France","service attente":"Distributeur d'Histoires Courtes","gare":"A\u00e9roport Charles de Gaulle 2 TGV","trigramme":"RYT","code commune":"93073","code(s) uic":"87001479;87271494","lat":"49.003652","lon":" 2.570892"},{"code_postal":"93290","nom_commune":"Tremblay-en-France","nom_departement":"Seine-Saint-Denis","nom_region":"\u00cele-de-France","service attente":"Rechargement portables et tablettes","gare":"A\u00e9roport Charles de Gaulle 2 TGV","trigramme":"RYT","code commune":"93073","code(s) uic":"87001479;87271494","lat":"49.003652","lon":" 2.570892"},{"code_postal":"93420","nom_commune":"Villepinte","nom_departement":"Seine-Saint-Denis","nom_region":"\u00cele-de-France","service attente":"Work & Station","gare":"Vert Galant","trigramme":"VGL","code commune":"93078","code(s) uic":"87271437","lat":"48.94467","lon":" 2.5667"},{"code_postal":"94480","nom_commune":"Ablon-sur-Seine","nom_departement":"Val-de-Marne","nom_region":"\u00cele-de-France","service attente":"Work & Station","gare":"Ablon","trigramme":"ABL","code commune":"94001","code(s) uic":"87545269","lat":"48.725468","lon":" 2.419151"},{"code_postal":"94140","nom_commune":"Alfortville","nom_departement":"Val-de-Marne","nom_region":"\u00cele-de-France","service attente":"Work & Station","gare":"Le Vert de Maisons","trigramme":"VDP","code commune":"94002","code(s) uic":"87681247","lat":"48.78934","lon":" 2.43148"},{"code_postal":"94150","nom_commune":"Rungis","nom_departement":"Val-de-Marne","nom_region":"\u00cele-de-France","service attente":"Work & Station","gare":"Rungis la Fraternelle","trigramme":"RFL","code commune":"94065","code(s) uic":"87546291","lat":"48.74032","lon":" 2.35298"},{"code_postal":"94350","nom_commune":"Villiers-sur-Marne","nom_departement":"Val-de-Marne","nom_region":"\u00cele-de-France","service attente":"Work & Station","gare":"Villiers-sur-Marne - Le Plessis-Tr\u00e9vise","trigramme":"VSM","code commune":"94079","code(s) uic":"87113795","lat":"48.823039","lon":" 2.541761"},{"code_postal":"94400","nom_commune":"Vitry-sur-Seine","nom_departement":"Val-de-Marne","nom_region":"\u00cele-de-France","service attente":"Rechargement portables et tablettes","gare":"Vitry-sur-Seine","trigramme":"VYB","code commune":"94081","code(s) uic":"87545293","lat":"48.800768","lon":" 2.402229"},{"code_postal":"95000","nom_commune":"Cergy","nom_departement":"Val-d'Oise","nom_region":"\u00cele-de-France","service attente":"Work & Station","gare":"Cergy le Haut","trigramme":"CJV","code commune":"95127","code(s) uic":"87382655","lat":"49.0484932","lon":" 2.0118725"},{"code_postal":"95000","nom_commune":"Cergy","nom_departement":"Val-d'Oise","nom_region":"\u00cele-de-France","service attente":"Work & Station","gare":"Cergy Saint-Christophe","trigramme":"CYC","code commune":"95127","code(s) uic":"87382499","lat":"49.0496151","lon":" 2.0343975"},{"code_postal":"95000","nom_commune":"Cergy","nom_departement":"Val-d'Oise","nom_region":"\u00cele-de-France","service attente":"Work & Station","gare":"Cergy le Haut","trigramme":"CJV","code commune":"95127","code(s) uic":"87382655","lat":"49.0484932","lon":" 2.0118725"},{"code_postal":"95000","nom_commune":"Cergy","nom_departement":"Val-d'Oise","nom_region":"\u00cele-de-France","service attente":"Work & Station","gare":"Cergy Saint-Christophe","trigramme":"CYC","code commune":"95127","code(s) uic":"87382499","lat":"49.0496151","lon":" 2.0343975"},{"code_postal":"95800","nom_commune":"Cergy","nom_departement":"Val-d'Oise","nom_region":"\u00cele-de-France","service attente":"Work & Station","gare":"Cergy le Haut","trigramme":"CJV","code commune":"95127","code(s) uic":"87382655","lat":"49.0484932","lon":" 2.0118725"},{"code_postal":"95800","nom_commune":"Cergy","nom_departement":"Val-d'Oise","nom_region":"\u00cele-de-France","service attente":"Work & Station","gare":"Cergy Saint-Christophe","trigramme":"CYC","code commune":"95127","code(s) uic":"87382499","lat":"49.0496151","lon":" 2.0343975"},{"code_postal":"95240","nom_commune":"Cormeilles-en-Parisis","nom_departement":"Val-d'Oise","nom_region":"\u00cele-de-France","service attente":"Work & Station","gare":"Cormeilles-en-Parisis","trigramme":"CPA","code commune":"95176","code(s) uic":"87381863","lat":"48.96864","lon":" 2.19358"},{"code_postal":"95170","nom_commune":"Deuil-la-Barre","nom_departement":"Val-d'Oise","nom_region":"\u00cele-de-France","service attente":"Rechargement portables et tablettes","gare":"La Barre Ormesson","trigramme":"LBJ","code commune":"95197","code(s) uic":"87271171","lat":"48.96633","lon":" 2.31688"},{"code_postal":"95120","nom_commune":"Ermont","nom_departement":"Val-d'Oise","nom_region":"\u00cele-de-France","service attente":"Distributeur d'Histoires Courtes","gare":"Ermont - Eaubonne","trigramme":"ERT","code commune":"95219","code(s) uic":"87276055;87534131","lat":"48.98032","lon":" 2.27176"},{"code_postal":"95120","nom_commune":"Ermont","nom_departement":"Val-d'Oise","nom_region":"\u00cele-de-France","service attente":"Work & Station","gare":"Ermont - Eaubonne","trigramme":"ERT","code commune":"95219","code(s) uic":"87276055;87534131","lat":"48.98032","lon":" 2.27176"},{"code_postal":"95120","nom_commune":"Ermont","nom_departement":"Val-d'Oise","nom_region":"\u00cele-de-France","service attente":"Work & Station","gare":"Ermont Halte","trigramme":"ERM","code commune":"95219","code(s) uic":"87276584","lat":"48.9898","lon":" 2.26323"},{"code_postal":"95130","nom_commune":"Franconville","nom_departement":"Val-d'Oise","nom_region":"\u00cele-de-France","service attente":"Work & Station","gare":"Franconville - Le Plessis-Bouchard","trigramme":"FPB","code commune":"95252","code(s) uic":"87276071","lat":"48.99358","lon":" 2.23514"},{"code_postal":"95140","nom_commune":"Garges-l\u00e8s-Gonesse","nom_departement":"Val-d'Oise","nom_region":"\u00cele-de-France","service attente":"Work & Station","gare":"Garges - Sarcelles","trigramme":"GAJ","code commune":"95268","code(s) uic":"87276196","lat":"48.97663","lon":" 2.39078"},{"code_postal":"95190","nom_commune":"Goussainville","nom_departement":"Val-d'Oise","nom_region":"\u00cele-de-France","service attente":"Work & Station","gare":"Goussainville","trigramme":"GOU","code commune":"95280","code(s) uic":"87276246","lat":"49.0240732","lon":" 2.4632464"},{"code_postal":"95410","nom_commune":"Groslay","nom_departement":"Val-d'Oise","nom_region":"\u00cele-de-France","service attente":"Work & Station","gare":"Groslay","trigramme":"GNX","code commune":"95288","code(s) uic":"87276360","lat":"48.98462","lon":" 2.35358"},{"code_postal":"95000","nom_commune":"Neuville-sur-Oise","nom_departement":"Val-d'Oise","nom_region":"\u00cele-de-France","service attente":"Work & Station","gare":"Neuville Universit\u00e9","trigramme":"NUE","code commune":"95450","code(s) uic":"87334482","lat":"49.01426","lon":" 2.07886"},{"code_postal":"95340","nom_commune":"Persan","nom_departement":"Val-d'Oise","nom_region":"\u00cele-de-France","service attente":"Rechargement portables et tablettes","gare":"Persan - Beaumont","trigramme":"PEB","code commune":"95487","code(s) uic":"87276469","lat":"49.14795","lon":" 2.27914"},{"code_postal":"95220","nom_commune":"Pierrelaye","nom_departement":"Val-d'Oise","nom_region":"\u00cele-de-France","service attente":"Work & Station","gare":"Pierrelaye","trigramme":"PRY","code commune":"95488","code(s) uic":"87276097","lat":"49.01955","lon":" 2.15371"},{"code_postal":"95480","nom_commune":"Pierrelaye","nom_departement":"Val-d'Oise","nom_region":"\u00cele-de-France","service attente":"Work & Station","gare":"Pierrelaye","trigramme":"PRY","code commune":"95488","code(s) uic":"87276097","lat":"49.01955","lon":" 2.15371"},{"code_postal":"95310","nom_commune":"Saint-Ouen-l'Aum\u00f4ne","nom_departement":"Val-d'Oise","nom_region":"\u00cele-de-France","service attente":"Work & Station","gare":"Saint-Ouen-l'Aum\u00f4ne Liesse","trigramme":"SOL","code commune":"95572","code(s) uic":"87337980","lat":"49.0338707","lon":" 2.1279345"}]